nctid,"search_query","facility",state,city,zip,latitude,longitude
NCT00947219,"Zoe Draelos, M.D., High Point, North Carolina 27262","Zoe Draelos, M.D.",North Carolina,High Point,27262,,
NCT06420804,"ZIIP Beauty, Pleasant Hill, California 94523",ZIIP Beauty,California,Pleasant Hill,94523,,
NCT06477172,"Ziering Medical, West Hollywood, California 90069",Ziering Medical,California,West Hollywood,90069,,
NCT03415685,"Zena Medical, Newport Beach, California 92660",Zena Medical,California,Newport Beach,92660,,
NCT01176448,"Zel Skin and Laser, Edina, Minnesota 55424",Zel Skin and Laser,Minnesota,Edina,55424,,
NCT01491620,"Zel Skin and Laser Specialists, Edina, Minnesota 55424",Zel Skin and Laser Specialists,Minnesota,Edina,55424,,
NCT02468453,"Zel Skin & Laser Specialists, Edina, Minnesota 55424",Zel Skin & Laser Specialists,Minnesota,Edina,55424,,
NCT02700152,"Zel Skin & Laser Specialists, Edina, Minnesota 55402",Zel Skin & Laser Specialists,Minnesota,Edina,55402,,
NCT06015217,"Young Skin MD, Coral Springs, Florida 33067",Young Skin MD,Florida,Coral Springs,33067,,
NCT02217228,"Yardley Dermatology Associates, Yardley, Pennsylvania 19067",Yardley Dermatology Associates,Pennsylvania,Yardley,19067,,
NCT02668536,"Yale University, New Haven, Connecticut 06511","Yale University",Connecticut,New Haven,06511,,
NCT05736224,"Yale School of Medicine, New Haven, Connecticut 06511",Yale School of Medicine,Connecticut,New Haven,06511,,
NCT07155239,"Wynn Medical Center Rheumatology/Dermatology, Rosemead, California 91770","Wynn Medical Center Rheumatology/Dermatology",California,Rosemead,91770,,
NCT03643744,"Wright State Physicians, Fairborn, Ohio 45324",Wright State Physicians,Ohio,Fairborn,45324,,
NCT05287724,"Wright State Physicians, Fairborn, Ohio 45324",Wright State Physicians,Ohio,Fairborn,45324,,
NCT04560647,"Wright State Physicians, Fairborn, Ohio 45324",Wright State Physicians,Ohio,Fairborn,45324,,
NCT03960125,"Wright State Physicians, Fairborn, Ohio 45324",Wright State Physicians,Ohio,Fairborn,45324,,
NCT04520217,"Wright State Physicians, Fairborn, Ohio 45324",Wright State Physicians,Ohio,Fairborn,45324,,
NCT04122456,"Wright State Physicians, Fairborn, Ohio 45324",Wright State Physicians,Ohio,Fairborn,45324,,
NCT03932162,"Wright State Physicians, Fairborn, Ohio 45324",Wright State Physicians,Ohio,Fairborn,45324,,
NCT05688904,"Wright State Physicians, Fairborn, Ohio 45324",Wright State Physicians,Ohio,Fairborn,45324,,
NCT06312813,"Wright State Physicians, Fairborn, Ohio 45324",Wright State Physicians,Ohio,Fairborn,45324,,
NCT06428721,"Wright State Physicians, Fairborn, Ohio 45324",Wright State Physicians,Ohio,Fairborn,45324,,
NCT05734235,"Wright State Physicians, Fairborn, Ohio 45324",Wright State Physicians,Ohio,Fairborn,45324,,
NCT04617782,"Worldwide Clinical Trials, San Antonio, Texas 78217","Worldwide Clinical Trials",Texas,San Antonio,78217,,
NCT00702507,"Wilson P. Andrews Jr., MD, Marietta, Georgia 30062","Wilson P. Andrews Jr., MD",Georgia,Marietta,30062,,
NCT05372419,"Wilmington Health Family Medicine, Wilmington, North Carolina 28411",Wilmington Health Family Medicine,North Carolina,Wilmington,28411,,
NCT04208100,"William LoVerme, MD, Billerica, Massachusetts 01821","William LoVerme, MD",Massachusetts,Billerica,01821,,
NCT04207047,"William LoVerme, MD, Billerica, Massachusetts 01821","William LoVerme, MD",Massachusetts,Billerica,01821,,
NCT01147172,"William Coleman, MD, Metairie, Louisiana 70006","William Coleman, MD",Louisiana,Metairie,70006,,
NCT03938948,"Will Surgical Arts, Ijamsville, Maryland 21754",Will Surgical Arts,Maryland,Ijamsville,21754,,
NCT03285581,"Westlake Dermatology, Austin, Texas 78746",Westlake Dermatology,Texas,Austin,78746,,
NCT03565146,"Westlake Dermatology, Austin, Texas 78746",Westlake Dermatology,Texas,Austin,78746,,
NCT05755139,"Westlake Dermatology, Austin, Texas 78746","Westlake Dermatology",Texas,Austin,78746,,
NCT06926023,"West Dermatology Research Center/Cosmetic Laser Dermatology, San Diego, California 92121",West Dermatology Research Center/Cosmetic Laser Dermatology,California,San Diego,92121,,
NCT06032286,"West Dermatology Research Center, San Diego, California 92121",West Dermatology Research Center,California,San Diego,92121,,
NCT03361176,"West Dermatology Research Center, San Diego, California 92121",West Dermatology Research Center,California,San Diego,92121,,
NCT03426098,"West Dermatology Research Center, San Diego, California 92121",West Dermatology Research Center,California,San Diego,92121,,
NCT06603857,"West Dermatology Research Center, San Diego, California 92121",West Dermatology Research Center,California,San Diego,92121,,
NCT01910818,"Wellman Center for Photomedicine, Massachusetts General Hospital, Boston, Massachusetts 02114","Wellman Center for Photomedicine, Massachusetts General Hospital",Massachusetts,Boston,02114,,
NCT05841628,"Wellman Center for Photomedicine, Harvard Medical School, Boston, Massachusetts 02114","Wellman Center for Photomedicine, Harvard Medical School",Massachusetts,Boston,02114,,
NCT05590585,"Wayne State University Physician Group Dermatology, Dearborn, Michigan 48126",Wayne State University Physician Group Dermatology,Michigan,Dearborn,48126,,
NCT05372419,"Washington University School of Medicine, St Louis, Missouri 63110",Washington University School of Medicine,Missouri,St Louis,63110,,
NCT02772276,"Washington University School of Medicine, St Louis, Missouri 63110","Washington University School of Medicine",Missouri,St Louis,63110,,
NCT05590585,"Washington University School of Medicine, St Louis, Missouri 63110",Washington University School of Medicine,Missouri,St Louis,63110,,
NCT01789346,"Washington Institute of Dermatologic Laser Surgery, Washington D.C., District of Columbia 20005",Washington Institute of Dermatologic Laser Surgery,District of Columbia,Washington D.C.,20005,,
NCT02146807,"Washington Institute of Dermatologic Laser Surgery, Washington D.C., District of Columbia 20005",Washington Institute of Dermatologic Laser Surgery,District of Columbia,Washington D.C.,20005,,
NCT00099112,"Warren Grant Magnuson Clinical Center - NCI Clinical Studies Support, Bethesda, Maryland 20892-1182",Warren Grant Magnuson Clinical Center - NCI Clinical Studies Support,Maryland,Bethesda,20892-1182,,
NCT05372419,"Wallace Medical Group, Inc., Los Angeles, California 90056","Wallace Medical Group, Inc.",California,Los Angeles,90056,,
NCT01247818,"Wake Research Associates, Raleigh, North Carolina 27602",Wake Research Associates,North Carolina,Raleigh,27602,,
NCT05386368,"Wake Forest University Health Sciences, Winston-Salem, North Carolina 27157",Wake Forest University Health Sciences,North Carolina,Winston-Salem,27157,,
NCT05981118,"Wake Forest University Health Sciences Department of Dermatology, Winston-Salem, North Carolina 27157",Wake Forest University Health Sciences Department of Dermatology,North Carolina,Winston-Salem,27157,,
NCT01831180,"Wake Forest School of Medicine - Dermatology Clinic, Winston-Salem, North Carolina 27157",Wake Forest School of Medicine - Dermatology Clinic,North Carolina,Winston-Salem,27157,,
NCT01147172,"Vitiligo and Pigmentation Inst of Southern California, Los Angeles, California 90036",Vitiligo and Pigmentation Inst of Southern California,California,Los Angeles,90036,,
NCT06099080,"Vitiligo & Pigmentation Institute of Southern California, Los Angeles, California 90036","Vitiligo & Pigmentation Institute of Southern California",California,Los Angeles,90036,,
NCT06349356,"Visionary Consultants Inc., Lexington, Kentucky 40517",Visionary Consultants Inc.,Kentucky,Lexington,40517,,
NCT03945383,"Virginia Clinical Research, Norfolk, Virginia 23502","Virginia Clinical Research",Virginia,Norfolk,23502,,
NCT00594425,"Virginia Clinical Research, Inc., Norfolk, Virginia 23507","Virginia Clinical Research, Inc.",Virginia,Norfolk,23507,,
NCT01347879,"Virginia Clinical Research, Inc., Norfolk, Virginia 23507","Virginia Clinical Research, Inc.",Virginia,Norfolk,23507,,
NCT00933543,"Virginia Clinical Research, Inc., Norfolk, Virginia 23507","Virginia Clinical Research, Inc.",Virginia,Norfolk,23507,,
NCT05372419,"Virginia Clinical Research, Inc., Norfolk, Virginia 23502","Virginia Clinical Research, Inc.",Virginia,Norfolk,23502,,
NCT00865878,"Vanderbilt University Medical Center, Nashville, Tennessee 37204",Vanderbilt University Medical Center,Tennessee,Nashville,37204,,
NCT05807620,"Validated Claim Support, LLC, Teaneck, New Jersey 07666","Validated Claim Support, LLC",New Jersey,Teaneck,07666,,
NCT00922623,"Valerie Callender, Mitchellville, Maryland 20721",Valerie Callender,Maryland,Mitchellville,20721,,
NCT06317766,"UT Soutwestern Medical Center, Dallas, Texas 75390",UT Soutwestern Medical Center,Texas,Dallas,75390,,
NCT05493280,"UT Southwestern Medical Center- Dept of Plastic Surgery, Dallas, Texas 75390",UT Southwestern Medical Center- Dept of Plastic Surgery,Texas,Dallas,75390,,
NCT04477187,"UT Southwestern Medical Center- Dept of Plastic Surgery, Dallas, Texas 75390",UT Southwestern Medical Center- Dept of Plastic Surgery,Texas,Dallas,75390,,
NCT03715049,"UT Southwestern Medical Center Dept. of Plastic Surgery, Dallas, Texas 75390-9132",UT Southwestern Medical Center Dept. of Plastic Surgery,Texas,Dallas,75390-9132,,
NCT05226104,"UT Southwestern Department of Plastic Surgery, Dallas, Texas 75390",UT Southwestern Department of Plastic Surgery,Texas,Dallas,75390,,
NCT06477172,"US Dermatology Partners / Dermatology Associates of Tyler, Tyler, Texas 75703","US Dermatology Partners / Dermatology Associates of Tyler",Texas,Tyler,75703,,
NCT05482425,"UPMC Aesthetic Plastic Surgery Center, Pittsburgh, Pennsylvania 15213",UPMC Aesthetic Plastic Surgery Center,Pennsylvania,Pittsburgh,15213,,
NCT00027976,"University of Wisconsin Comprehensive Cancer Center, Madison, Wisconsin 53792-6164",University of Wisconsin Comprehensive Cancer Center,Wisconsin,Madison,53792-6164,,
NCT06558838,"University of Utah MidValley Dermatology, Murray, Utah 84107",University of Utah MidValley Dermatology,Utah,Murray,84107,,
NCT03988049,"University of Utah MidValley Dermatology, Murray, Utah 84107",University of Utah MidValley Dermatology,Utah,Murray,84107,,
NCT04893577,"University of Utah MidValley Dermatology, Murray, Utah 84107",University of Utah MidValley Dermatology,Utah,Murray,84107,,
NCT04616898,"University of Texas Southwestern, Dallas, Texas 75390",University of Texas Southwestern,Texas,Dallas,75390,,
NCT06091215,"University of Texas Southwestern Medical Center, Dallas, Texas 75390",University of Texas Southwestern Medical Center,Texas,Dallas,75390,,
NCT03507036,"University of Texas Southwestern Medical Center, Dallas, Texas 75390","University of Texas Southwestern Medical Center",Texas,Dallas,75390,,
NCT05085730,"University of Texas Southwestern Medical Center, Dallas, Texas 75390",University of Texas Southwestern Medical Center,Texas,Dallas,75390,,
NCT00027976,"University of Texas - MD Anderson Cancer Center, Houston, Texas 77030-4009",University of Texas - MD Anderson Cancer Center,Texas,Houston,77030-4009,,
NCT02090933,"University of Rochester, Rochester, New York 14642",University of Rochester,New York,Rochester,14642,,
NCT02099136,"University of Rochester, Rochester, New York 14642",University of Rochester,New York,Rochester,14642,,
NCT00523588,"University of Pennsylvania, Department of Dermatology, Philadelphia, Pennsylvania 19104","University of Pennsylvania, Department of Dermatology",Pennsylvania,Philadelphia,19104,,
NCT02322086,"University of North Carolina School of Medicine, Chapel Hill, North Carolina 27516",University of North Carolina School of Medicine,North Carolina,Chapel Hill,27516,,
NCT05514834,"University of Minnesota, Minneapolis, Minnesota 55455",University of Minnesota,Minnesota,Minneapolis,55455,,
NCT01016964,"University of Minnesota, Department of Dermatology, Minneapolis, Minnesota 55455","University of Minnesota, Department of Dermatology",Minnesota,Minneapolis,55455,,
NCT05383664,"University of Michigan, Ann Arbor, Michigan 48109",University of Michigan,Michigan,Ann Arbor,48109,,
NCT03728569,"University of Michigan, Ann Arbor, Michigan 48109",University of Michigan,Michigan,Ann Arbor,48109,,
NCT03089580,"University of Michigan Kellogg Eye Center, Ann Arbor, Michigan 48105",University of Michigan Kellogg Eye Center,Michigan,Ann Arbor,48105,,
NCT00647556,"University of Michigan Department of Dermatology, Ann Arbor, Michigan 48109",University of Michigan Department of Dermatology,Michigan,Ann Arbor,48109,,
NCT00027976,"University of Michigan Comprehensive Cancer Center, Ann Arbor, Michigan 48109-0314",University of Michigan Comprehensive Cancer Center,Michigan,Ann Arbor,48109-0314,,
NCT06801795,"University of Miami, Miami, Florida 33136",University of Miami,Florida,Miami,33136,,
NCT03661697,"University of Miami, Miami, Florida 33136","University of Miami",Florida,Miami,33136,,
NCT00865878,"University of Miami, Miami, Florida 33136",University of Miami,Florida,Miami,33136,,
NCT05166395,"University of Miami, Miami, Florida 33136",University of Miami,Florida,Miami,33136,,
NCT02472405,"University of Miami Sylvester Comprehensive Cancer Center, Miami, Florida 33136",University of Miami Sylvester Comprehensive Cancer Center,Florida,Miami,33136,,
NCT00520910,"University of Miami Skin Research Group Office, Miami, Florida 33136",University of Miami Skin Research Group Office,Florida,Miami,33136,,
NCT05590585,"University of Miami Miller School of Medicine, Miami, Florida 33136",University of Miami Miller School of Medicine,Florida,Miami,33136,,
NCT01016964,"University of Miami Miller School of Medicine - Dermatology, Miami, Florida 33136",University of Miami Miller School of Medicine - Dermatology,Florida,Miami,33136,,
NCT02270645,"University of Miami Hospital and Clinics/Sylvester Comprehensive Cancer Center, Miami, Florida 33136","University of Miami Hospital and Clinics/Sylvester Comprehensive Cancer Center",Florida,Miami,33136,,
NCT01162850,"University of Miami Cosmetic Center, Miami, Florida 33140",University of Miami Cosmetic Center,Florida,Miami,33140,,
NCT02988622,"University of Iowa Health Care, Department of Dermatology, Iowa City, Iowa 52242","University of Iowa Health Care, Department of Dermatology",Iowa,Iowa City,52242,,
NCT05356754,"University of Colorado Hospital, Aurora, Colorado 80045","University of Colorado Hospital",Colorado,Aurora,80045,,
NCT00865878,"University of California, San Francisco, San Francisco, California 94115","University of California, San Francisco",California,San Francisco,94115,,
NCT00865878,"University of California, Irvine, Irvine, California 92697","University of California, Irvine",California,Irvine,92697,,
NCT03767972,"University of California, Irvine, Dermatology Clinical Research Center, Irvine, California 92697","University of California, Irvine, Dermatology Clinical Research Center",California,Irvine,92697,,
NCT04969380,"University of California, Irvine, California 92697",University of California,California,Irvine,92697,,
NCT04176068,"University of California, Irvine Dermatology Clinical Research Center, Irvine, California 92697","University of California, Irvine Dermatology Clinical Research Center",California,Irvine,92697,,
NCT05356754,"University of California San Francisco, San Francisco, California 94143",University of California San Francisco,California,San Francisco,94143,,
NCT05372419,"University of California Davis (UC Davis) Comprehensive Cancer Center, Sacramento, California 95816","University of California Davis (UC Davis) Comprehensive Cancer Center",California,Sacramento,95816,,
NCT05398237,"University of Arizona, Tucson, Arizona 85724",University of Arizona,Arizona,Tucson,85724,,
NCT03176485,"University of Arizona Cancer Center, Tucson, Arizona 85724",University of Arizona Cancer Center,Arizona,Tucson,85724,,
NCT06177106,"University of Arizona Cancer Center, Tucson, Arizona 85719",University of Arizona Cancer Center,Arizona,Tucson,85719,,
NCT00027976,"University of Alabama at Birmingham Comprehensive Cancer Center, Birmingham, Alabama 35294-3300",University of Alabama at Birmingham Comprehensive Cancer Center,Alabama,Birmingham,35294-3300,,
NCT02968446,"University Hospitals, Cleveland, Ohio 44106",University Hospitals,Ohio,Cleveland,44106,,
NCT02457000,"University Hospitals Cleveland Medical Center, Cleveland, Ohio 44118",University Hospitals Cleveland Medical Center,Ohio,Cleveland,44118,,
NCT02920502,"University Hospitals Cleveland Medical Center, Cleveland, Ohio 44106",University Hospitals Cleveland Medical Center,Ohio,Cleveland,44106,,
NCT02165657,"University Hospitals Cleveland Medical Center (Concord Site), Concord, Ohio 44077",University Hospitals Cleveland Medical Center (Concord Site),Ohio,Concord,44077,,
NCT01986634,"Univeristy Hospitals Cedar Brainard Office, Lyndhurst, Ohio 44124",Univeristy Hospitals Cedar Brainard Office,Ohio,Lyndhurst,44124,,
NCT04540913,"United States, Florida, Bradenton, Florida 34209","United States, Florida",Florida,Bradenton,34209,,
NCT06885112,"UnionDerm, New York, New York 10003",UnionDerm,New York,New York,10003,,
NCT02748928,"Union Square Laser Dermatology, New York, New York 10003",Union Square Laser Dermatology,New York,New York,10003,,
NCT02999763,"Union Square Laser Dermatology, New York, New York 10003","Union Square Laser Dermatology",New York,New York,10003,,
NCT02286804,"Ulthera, Inc., Mesa, Arizona 85204","Ulthera, Inc.",Arizona,Mesa,85204,,
NCT05590585,"UCSF, San Francisco, California 94118",UCSF,California,San Francisco,94118,,
NCT01012713,"UCSF Psoriasis and Skin Treatment Center, San Francisco, California 94118","UCSF Psoriasis and Skin Treatment Center",California,San Francisco,94118,,
NCT05590585,"UCSD/ Rady Children's Hospital, San Diego, California 92123",UCSD/ Rady Children's Hospital,California,San Diego,92123,,
NCT05372419,"UConn Health, Farmington, Connecticut 06030-2840",UConn Health,Connecticut,Farmington,06030-2840,,
NCT06879626,"UCLA Center for Human Nutrition, Los Angeles, California 90095","UCLA Center for Human Nutrition",California,Los Angeles,90095,,
NCT04352504,"UCLA Center for Human Nutrition, Los Angeles, California 90095",UCLA Center for Human Nutrition,California,Los Angeles,90095,,
NCT07006636,"UCLA Center for Human Nutrition, Los Angeles, California 90095",UCLA Center for Human Nutrition,California,Los Angeles,90095,,
NCT05102604,"UCLA Center for Human Nutrition, Los Angeles, California 90024",UCLA Center for Human Nutrition,California,Los Angeles,90024,,
NCT03496584,"UCLA Center for Human Nutriiton, Los Angeles, California 90095",UCLA Center for Human Nutriiton,California,Los Angeles,90095,,
NCT05171894,"UCI Health Beckman Laser Institute & Medical Clinic, Irvine, California 92697",UCI Health Beckman Laser Institute & Medical Clinic,California,Irvine,92697,,
NCT00585715,"UC Irvine Dermatology Clinical Research Center, Irvine, California 92697",UC Irvine Dermatology Clinical Research Center,California,Irvine,92697,,
NCT00585286,"UC Irvine Dermatology Clinical Research Center, Irvine, California 92697",UC Irvine Dermatology Clinical Research Center,California,Irvine,92697,,
NCT02954315,"UC Davis Department of Dermatology, Clinical Trials Unit, Sacramento, California 95816","UC Davis Department of Dermatology, Clinical Trials Unit",California,Sacramento,95816,,
NCT05011461,"UC Davis Department of Dermatology, Clinical Trials Unit, Sacramento, California 95816","UC Davis Department of Dermatology, Clinical Trials Unit",California,Sacramento,95816,,
NCT04875715,"UC Davis Department of Dermatology, Clinical Trials Unit, Sacramento, California 95816","UC Davis Department of Dermatology, Clinical Trials Unit",California,Sacramento,95816,,
NCT03729700,"UC Davis Department of Dermatology, Clinical Trials Unit, Sacramento, California 95816","UC Davis Department of Dermatology, Clinical Trials Unit",California,Sacramento,95816,,
NCT01053819,"UAB Dermatology, Birmingham, Alabama 35233",UAB Dermatology,Alabama,Birmingham,35233,,
NCT00089180,"UAB Comprehensive Cancer Center, Birmingham, Alabama 35294",UAB Comprehensive Cancer Center,Alabama,Birmingham,35294,,
NCT00865878,"Tufts Medical Center, Boston, Massachusetts 02111",Tufts Medical Center,Massachusetts,Boston,02111,,
NCT06349356,"Triangle Eye Consultants, Raleigh, North Carolina 27617",Triangle Eye Consultants,North Carolina,Raleigh,27617,,
NCT06349356,"Toyos Clinic, Nashville, Tennessee 37215",Toyos Clinic,Tennessee,Nashville,37215,,
NCT05168670,"Toyos Clinic, Nashville, Tennessee 37215",Toyos Clinic,Tennessee,Nashville,37215,,
NCT05372419,"Total Skin and Beauty Dermatology Center, PC, Birmingham, Alabama 35205","Total Skin and Beauty Dermatology Center, PC",Alabama,Birmingham,35205,,
NCT05590585,"Total Skin & Beauty Dermatology Center, Birmingham, Alabama 35203",Total Skin & Beauty Dermatology Center,Alabama,Birmingham,35203,,
NCT02575950,"Torrance Clinical Research Institute Inc., Lomita, California 90717",Torrance Clinical Research Institute Inc.,California,Lomita,90717,,
NCT06633731,"Tone Dermatology, Chicago, Illinois 60616",Tone Dermatology,Illinois,Chicago,60616,,
NCT04147260,"TKL Research, Inc., Fair Lawn, New Jersey 07410","TKL Research, Inc.",New Jersey,Fair Lawn,07410,,
NCT05844735,"TKL Research, Inc., Fair Lawn, New Jersey 07410","TKL Research, Inc.",New Jersey,Fair Lawn,07410,,
NCT01787461,"TKL Research, Inc., Fair Lawn, New Jersey 07410","TKL Research, Inc.",New Jersey,Fair Lawn,07410,,
NCT06369675,"TKL Research, Inc, Fair Lawn, New Jersey 07410","TKL Research, Inc",New Jersey,Fair Lawn,07410,,
NCT06369727,"TKL Research, Inc, Fair Lawn, New Jersey 07410","TKL Research, Inc",New Jersey,Fair Lawn,07410,,
NCT03472534,"TKL Research, Fair Lawn, New Jersey 07410",TKL Research,New Jersey,Fair Lawn,07410,,
NCT03472547,"TKL Research, Fair Lawn, New Jersey 07410",TKL Research,New Jersey,Fair Lawn,07410,,
NCT02321644,"TKL Research, Fair Lawn, New Jersey 07410",TKL Research,New Jersey,Fair Lawn,07410,,
NCT03473197,"TKL Research, Fair Lawn, New Jersey 07410",TKL Research,New Jersey,Fair Lawn,07410,,
NCT03473184,"TKL Research, Fair Lawn, New Jersey 07410",TKL Research,New Jersey,Fair Lawn,07410,,
NCT01686295,"TKL Research Inc., Paramus, New Jersey 07652","TKL Research Inc.",New Jersey,Paramus,07652,,
NCT03365934,"TKL Research Inc., Fair Lawn, New Jersey 07410",TKL Research Inc.,New Jersey,Fair Lawn,07410,,
NCT02650505,"TKL Research Inc., Fair Lawn, New Jersey 07410",TKL Research Inc.,New Jersey,Fair Lawn,07410,,
NCT03899064,"TKL Research Inc., Fair Lawn, New Jersey 07410","TKL Research Inc.",New Jersey,Fair Lawn,07410,,
NCT03892564,"TKL Research Inc, Fair Lawn, New Jersey 07410",TKL Research Inc,New Jersey,Fair Lawn,07410,,
NCT01830764,"TKL Research Inc (Research Clinics Division), Paramus, New Jersey 07652",TKL Research Inc (Research Clinics Division),New Jersey,Paramus,07652,,
NCT00818311,"Thomas Stephens and Associates, Inc, Carrollton, Texas 75006","Thomas Stephens and Associates, Inc",Texas,Carrollton,75006,,
NCT04040933,"Thomas J. Stephens, Richardson, Texas 75081",Thomas J. Stephens,Texas,Richardson,75081,,
NCT04510103,"Thomas J. Stephens & Associates, Inc., Colorado Springs, Colorado 80915","Thomas J. Stephens & Associates, Inc.",Colorado,Colorado Springs,80915,,
NCT00594425,"Therapeutics Clinical Research, San Diego, California 92123",Therapeutics Clinical Research,California,San Diego,92123,,
NCT00891774,"The Vitiligo and Pigmentation Institute of Southern California, Los Angeles, California 90036",The Vitiligo and Pigmentation Institute of Southern California,California,Los Angeles,90036,,
NCT05590585,"The University Of Alabama At Birmingham, Birmingham, Alabama 35233","The University Of Alabama At Birmingham",Alabama,Birmingham,35233,,
NCT04829227,"The Practice of Brian S. Biesman, MD, Nashville, Tennessee 37203","The Practice of Brian S. Biesman, MD",Tennessee,Nashville,37203,,
NCT03573271,"The Practice of Brian S. Biesman, M.D, Nashville, Tennessee 37203","The Practice of Brian S. Biesman, M.D",Tennessee,Nashville,37203,,
NCT03583918,"The Practice of Brian S. Biesman, M.D, Nashville, Tennessee 37203","The Practice of Brian S. Biesman, M.D",Tennessee,Nashville,37203,,
NCT05755139,"The Pearl Dermatology, Houston, Texas 77027",The Pearl Dermatology,Texas,Houston,77027,,
NCT03793348,"The Office of Brian Biesman, M.D., Nashville, Tennessee 37203","The Office of Brian Biesman, M.D.",Tennessee,Nashville,37203,,
NCT01430195,"The Mount Sinai School of Medicine, New York, New York 10029",The Mount Sinai School of Medicine,New York,New York,10029,,
NCT00865878,"The Mount Sinai Medical Center, New York, New York 10029",The Mount Sinai Medical Center,New York,New York,10029,,
NCT01597323,"The Maryland Laser, Skin and Vein Institute, Hunt Valley, Maryland 21030","The Maryland Laser, Skin and Vein Institute",Maryland,Hunt Valley,21030,,
NCT02145364,"The Maas Clinic, San Francisco, California 94115",The Maas Clinic,California,San Francisco,94115,,
NCT03125655,"The Kirklin Clinic, Birmingham, Alabama 35294",The Kirklin Clinic,Alabama,Birmingham,35294,,
NCT03122366,"The Kirklin Clinic, Birmingham, Alabama 35294","The Kirklin Clinic",Alabama,Birmingham,35294,,
NCT04740892,"The Education & Research Foundation, Inc., Lynchburg, Virginia 24591","The Education & Research Foundation, Inc.",Virginia,Lynchburg,24591,,
NCT00594425,"The Education & Research Foundation, Inc., Lynchburg, Virginia 24501-1604","The Education & Research Foundation, Inc.",Virginia,Lynchburg,24501-1604,,
NCT02260180,"The Education & Research Foundation, Inc., Lynchburg, Virginia 24501","The Education & Research Foundation, Inc.",Virginia,Lynchburg,24501,,
NCT03841032,"The Education & Research Foundation, Inc., Lynchburg, Virginia 24501","The Education & Research Foundation, Inc.",Virginia,Lynchburg,24501,,
NCT01787461,"The Education & Research Foundation, Inc., Lynchburg, Virginia 24501","The Education & Research Foundation, Inc.",Virginia,Lynchburg,24501,,
NCT02217228,"The Dermatology Institute-DuPage Medical Group, Naperville, Illinois 60563",The Dermatology Institute-DuPage Medical Group,Illinois,Naperville,60563,,
NCT06366503,"The Dermatology Group, Blue Ash, Ohio 45242","The Dermatology Group",Ohio,Blue Ash,45242,,
NCT00594425,"The Dermatology Clinical Research Center of San Antonio, San Antonio, Texas 78229",The Dermatology Clinical Research Center of San Antonio,Texas,San Antonio,78229,,
NCT00891774,"The Boyd Gillard Institute of Aesthetic & Dermatology Surgery, Ypsilanti, Michigan 48197","The Boyd Gillard Institute of Aesthetic & Dermatology Surgery",Michigan,Ypsilanti,48197,,
NCT01984619,"The Aesthetics Research Center, Redwood City, California 94043",The Aesthetics Research Center,California,Redwood City,94043,,
NCT03409965,"The Aesthetic Clinique, Santa Rosa Beach, Florida 32459",The Aesthetic Clinique,Florida,Santa Rosa Beach,32459,,
NCT06351293,"The Aesthetic Clinique, Santa Rosa Beach, Florida 32459",The Aesthetic Clinique,Florida,Santa Rosa Beach,32459,,
NCT05372419,"Texas Dermatology and Laser Specialists, San Antonio, Texas 78218",Texas Dermatology and Laser Specialists,Texas,San Antonio,78218,,
NCT05590585,"Texas Dermatology and Laser Specialists, San Antonio, Texas 78218",Texas Dermatology and Laser Specialists,Texas,San Antonio,78218,,
NCT00891774,"Tennessee Clinical Research, Nashville, Tennessee 37215",Tennessee Clinical Research,Tennessee,Nashville,37215,,
NCT04032977,"Tennessee Clinical Research Center, Nashville, Tennessee 37215",Tennessee Clinical Research Center,Tennessee,Nashville,37215,,
NCT06157853,"Tennessee Clinical Research Center, Nashville, Tennessee 37215","Tennessee Clinical Research Center",Tennessee,Nashville,37215,,
NCT02528552,"Tennessee Clinical Research Center, Nashville, Tennessee 37215","Tennessee Clinical Research Center",Tennessee,Nashville,37215,,
NCT04829227,"Tennessee Clinical Research Center, Nashville, Tennessee 37215","Tennessee Clinical Research Center",Tennessee,Nashville,37215,,
NCT04029545,"Tennessee Clinical Research Center, Nashville, Tennessee 37215",Tennessee Clinical Research Center,Tennessee,Nashville,37215,,
NCT02600104,"Tennessee Clinical Research Center, Nashville, Tennessee 37215",Tennessee Clinical Research Center,Tennessee,Nashville,37215,,
NCT02217228,"Tennessee Clinical Research Center, Nashville, Tennessee 37215",Tennessee Clinical Research Center,Tennessee,Nashville,37215,,
NCT01147172,"Tenneesee Clinical Research Center, Nashville, Tennessee 37215","Tenneesee Clinical Research Center",Tennessee,Nashville,37215,,
NCT03774849,"Syneron Candela Institute for Excellence, Wayland, Massachusetts 01778",Syneron Candela Institute for Excellence,Massachusetts,Wayland,01778,,
NCT02891239,"Syneron Candela Institute for Education Clinic, Wayland, Massachusetts 01778",Syneron Candela Institute for Education Clinic,Massachusetts,Wayland,01778,,
NCT02468453,"Syneron Candela Institute for Education Clinic, Wayland, Massachusetts 01778",Syneron Candela Institute for Education Clinic,Massachusetts,Wayland,01778,,
NCT02748928,"Syneron Candela Institute for Education Clinic, Wayland, Massachusetts 01778","Syneron Candela Institute for Education Clinic",Massachusetts,Wayland,01778,,
NCT02999763,"Syneron Candela Institute for Education Clinic, Wayland, Massachusetts 01778",Syneron Candela Institute for Education Clinic,Massachusetts,Wayland,01778,,
NCT03333759,"Sylvester Comprehensive Cancer Center, Miami, Florida 33130",Sylvester Comprehensive Cancer Center,Florida,Miami,33130,,
NCT03559972,"Suzanne Bruce and Associates, PA, The Center for Skin Research, Houston, Texas 77056","Suzanne Bruce and Associates, PA, The Center for Skin Research",Texas,Houston,77056,,
NCT00594425,"Suzanne Bruce and Associates, PA, Houston, Texas 77056","Suzanne Bruce and Associates, PA",Texas,Houston,77056,,
NCT00891774,"Susan Taylor, Philadelphia, Pennsylvania 19107",Susan Taylor,Pennsylvania,Philadelphia,19107,,
NCT05590585,"SUNY Downstate Medical Center, Brooklyn, New York 11203",SUNY Downstate Medical Center,New York,Brooklyn,11203,,
NCT03007589,"Sun Protection Foundation, Waimea, Hawaii 98108",Sun Protection Foundation,Hawaii,Waimea,98108,,
NCT03007589,"Sun Protection Foundation, Seattle, Washington 98108",Sun Protection Foundation,Washington,Seattle,98108,,
NCT03007589,"Sun Protection Foundation, San Diego, California 98108",Sun Protection Foundation,California,San Diego,98108,,
NCT04540900,"Steve Yoelin, MD Medical Associates, Inc., Newport Beach, California 92663","Steve Yoelin, MD Medical Associates, Inc.",California,Newport Beach,92663,,
NCT06724900,"Steve Yoelin Medical Associates, Newport Beach, California 92663","Steve Yoelin Medical Associates",California,Newport Beach,92663,,
NCT03097835,"Steve Yoelin MD & Associates, Newport Beach, California 92663",Steve Yoelin MD & Associates,California,Newport Beach,92663,,
NCT02288858,"Stephens Associates Inc., Richardson, Texas 75081",Stephens Associates Inc.,Texas,Richardson,75081,,
NCT04911374,"Stephens and Associates, Richardson, Texas 75081",Stephens and Associates,Texas,Richardson,75081,,
NCT02755545,"Stephens & Associates, Inc. Texas Research Center, Richardson, Texas 75081","Stephens & Associates, Inc. Texas Research Center",Texas,Richardson,75081,,
NCT03719742,"Stephens & Associates, Inc, Richardson, Texas 75231","Stephens & Associates, Inc",Texas,Richardson,75231,,
NCT03243981,"Stanford University, Redwood City, California 94063",Stanford University,California,Redwood City,94063,,
NCT01097902,"Stanford University School of Medicine, Stanford, California 94305",Stanford University School of Medicine,California,Stanford,94305,,
NCT01094574,"Stanford University School of Medicine, Stanford, California 94305",Stanford University School of Medicine,California,Stanford,94305,,
NCT00186563,"Stanford University School of Medicine, Stanford, California 94305",Stanford University School of Medicine,California,Stanford,94305,,
NCT00541931,"Stanford University School of Medicine, Stanford, California 94305",Stanford University School of Medicine,California,Stanford,94305,,
NCT03072485,"Stanford Dermatology, Redwood City, California 94603",Stanford Dermatology,California,Redwood City,94603,,
NCT01451476,"Stanford Dermatology, Redwood City, California 94603",Stanford Dermatology,California,Redwood City,94603,,
NCT02749786,"Stanford Dermatology, Redwood City, California 94603",Stanford Dermatology,California,Redwood City,94603,,
NCT02787616,"Stanford Dermatology, Redwood City, California 94603","Stanford Dermatology",California,Redwood City,94603,,
NCT05171894,"St. Luke's University Health Network, Bethlehem, Pennsylvania 18015","St. Luke's University Health Network",Pennsylvania,Bethlehem,18015,,
NCT03810833,"St. Louis Clinical Trials, St Louis, Missouri 63141",St. Louis Clinical Trials,Missouri,St Louis,63141,,
NCT01609530,"St. Joseph Mercy Hospital, Ypsilanti, Michigan 48197",St. Joseph Mercy Hospital,Michigan,Ypsilanti,48197,,
NCT01147172,"St Luke's Roosevelt, New York, New York 10025",St Luke's Roosevelt,New York,New York,10025,,
NCT02217228,"Spokane Dermatology Clinic, Spokane, Washington 92204",Spokane Dermatology Clinic,Washington,Spokane,92204,,
NCT02217228,"Spencer Dermatology, St. Petersburg, Florida 33716",Spencer Dermatology,Florida,St. Petersburg,33716,,
NCT01026662,"SouthWestern Medical Center, Dallas, Texas 75390-8843","SouthWestern Medical Center",Texas,Dallas,75390-8843,,
NCT06357221,"Southeast Dermatology Specialists, LLC, Douglasville, Georgia 30135","Southeast Dermatology Specialists, LLC",Georgia,Douglasville,30135,,
NCT06357221,"Southeast Dermatology Specialists, LLC, Columbus, Georgia 31904","Southeast Dermatology Specialists, LLC",Georgia,Columbus,31904,,
NCT00992277,"South Dermatology Institute, Tustin, California 92780",South Dermatology Institute,California,Tustin,92780,,
NCT01347879,"Somerset Skin Centre, Troy, Michigan 48084",Somerset Skin Centre,Michigan,Troy,48084,,
NCT06351358,"Somenek + Pittman MD: Advanced Plastic Surgery, Washington D.C., District of Columbia 20037","Somenek + Pittman MD: Advanced Plastic Surgery",District of Columbia,Washington D.C.,20037,,
NCT05372419,"Solutions Through Advanced Research, Jacksonville, Florida 32256",Solutions Through Advanced Research,Florida,Jacksonville,32256,,
NCT01257555,"Solta Medical, Hayward, California 94545",Solta Medical,California,Hayward,94545,,
NCT00594425,"Solano Clinical Research, Vallejo, California 94589",Solano Clinical Research,California,Vallejo,94589,,
NCT01518907,"SNBL Clinical Pharmacology Center, Inc, Baltimore, Maryland 21201","SNBL Clinical Pharmacology Center, Inc",Maryland,Baltimore,21201,,
NCT04829227,"SLSS, a Division of Schweiger Dermatology Group Research Office, Hackensack, New Jersey 07601","SLSS, a Division of Schweiger Dermatology Group Research Office",New Jersey,Hackensack,07601,,
NCT02642627,"SKIP",Call Suneva for Info,Texas,Houston,77494,,
NCT02872220,"SKIP",nan,Florida,Pinellas Park,33781,,
NCT02695303,SKIP,nan,New Jersey,Union,07083,,
NCT02815202,SKIP,nan,New Jersey,Union,07083,,
NCT04749459,"SKIP","GSK Investigational Site",New Jersey,Fairfield,07004,,
NCT02803320,"SKIP","nan",Florida,St. Petersburg,33714,,
NCT02877511,"SKIP",nan,Florida,St. Petersburg,33714,,
NCT02930772,"SKIP",nan,New Jersey,Union,07083,,
NCT02822300,"SKIP",nan,New Jersey,Union,07083,,
NCT02643628,"SKIP",Call Suneva for Info,Tennessee,Nashville,37203,,
NCT05089708,SKIP,Galderma Investigational Site #8636,California,Fountain Valley,92708,,
NCT05089708,SKIP,Galderma Investigational Site #8224,California,Fremont,94538,,
NCT05089708,SKIP,Galderma Investigational Site #8358,California,San Diego,92108,,
NCT05089708,SKIP,Galderma Investigational Site #9955,California,San Diego,92123,,
NCT05089708,SKIP,Galderma Investigational Site #7012,Florida,Lutz,33549,,
NCT05089708,SKIP,Galderma Investigational Site #8184,Florida,Maitland,32751,,
NCT05089708,SKIP,Galderma Investigational Site #8764,Florida,Tampa,33613,,
NCT05089708,SKIP,Galderma Investigational Site #9950,Indiana,Evansville,47714,,
NCT05089708,SKIP,Galderma Investigational Site #9952,Louisiana,Baton Rouge,70808,,
NCT05089708,SKIP,Galderma Investigational Site #8606,Louisiana,New Orleans,70115,,
NCT05089708,SKIP,Galderma Investigational Site #8012,Maryland,Glenn Dale,20769,,
NCT05089708,SKIP,Galderma Investigational Site #9948,Maryland,Hyattsville,20782,,
NCT05089708,SKIP,Galderma Investigational Site #8554,Michigan,Detroit,48202,,
NCT05089708,SKIP,Galderma Investigational Site #8108,Nevada,Las Vegas,89148,,
NCT05089708,SKIP,Galderma Investigational Site #8620,New York,New York,10025,,
NCT05089708,SKIP,Galderma Investigational Site #9956,New York,New York,10025,,
NCT05089708,SKIP,Galderma Investigational Site #9949,New York,New York,10155,,
NCT05089708,SKIP,Galderma Investigational Site #9953,Oklahoma,Tulsa,74133,,
NCT05089708,SKIP,Galderma Investigational Site #8207,Tennessee,Nashville,37215,,
NCT05089708,SKIP,Galderma Investigational Site #9920,Texas,Arlington,76011,,
NCT05089708,SKIP,Galderma Investigational Site #8329,Texas,San Antonio,78229,,
NCT05089708,SKIP,Galderma Investigational Site #8433,Texas,San Antonio,78229,,
NCT02995109,SKIP,nan,New Jersey,Union,07083,,
NCT02822339,"SKIP",nan,New Jersey,Union,07083,,
NCT05210582,"SKIP",CLINUVEL Investigational site,Michigan,Detroit,48202,,
NCT02760563,"SKIP",nan,New Jersey,Union,07083,,
NCT03224598,SKIP,Aclaris Investigational Site,District of Columbia,Washington D.C.,20037,,
NCT03224598,"SKIP","Aclaris Investigational Site",New York,New York,10155,,
NCT03502434,"SKIP",Research Site,Virginia,Lynchburg,24503,,
NCT05124899,SKIP,GSK Investigational Site,North Carolina,Winston-Salem,27101,,
NCT02823483,"SKIP",nan,New Jersey,Piscataway,08854,,
NCT01012388,SKIP,nan,California,Los Angeles,nan,,
NCT01012388,SKIP,nan,Maryland,Chevy Chase,nan,,
NCT01012388,SKIP,nan,Michigan,Ypsilanti,nan,,
NCT01012388,SKIP,nan,New York,New York,nan,,
NCT01012388,SKIP,nan,Pennsylvania,Philadelphia,nan,,
NCT02741466,"SKIP",nan,New Jersey,Union,07083,,
NCT04531527,SKIP,nan,New Jersey,Fairfield,07004,,
NCT02739802,"SKIP",nan,New Jersey,Union,07083,,
NCT02801929,"SKIP",nan,New Jersey,Union,07083,,
NCT02962869,SKIP,nan,New Jersey,Piscataway,08854,,
NCT02751541,"SKIP",nan,New Jersey,Piscataway,08854,,
NCT02936557,"SKIP",nan,New Jersey,Union,07083,,
NCT02815228,"SKIP",nan,New Jersey,Union,07083,,
NCT02994992,"SKIP",nan,New Jersey,Union,07083,,
NCT02891044,SKIP,nan,New Jersey,Union,07083,,
NCT02995031,"SKIP",nan,New Jersey,Union,07083,,
NCT01113606,SKIP,Suite 135,California,Oxnard,93030,,
NCT01113606,"SKIP",Suite 175,California,Rancho Santa Margarita,92688,,
NCT01113606,"SKIP",nan,New York,New York,nan,,
NCT02995148,"SKIP",nan,New Jersey,Union,07083,,
NCT01984775,"SKIP","GSK Investigational Site",Maryland,Baltimore,21225,,
NCT02872246,"SKIP",nan,New Jersey,Union,07083,,
NCT02776852,"SKIP",nan,New Jersey,Union,07083,,
NCT02803099,"SKIP",nan,New Jersey,Union,07083,,
NCT02936544,"SKIP",nan,New Jersey,Union,07083,,
NCT05078827,SKIP,CBCC Global Research Site 005,California,Bakersfield,93309,,
NCT05078827,SKIP,CBCC Global Research Site 006,California,Cerritos,90703,,
NCT05078827,SKIP,CBCC Global Research Site 004,Florida,Lauderdale Lakes,33308,,
NCT05078827,SKIP,CBCC Global Research Site 001,Florida,Miami,33015,,
NCT05078827,SKIP,CBCC Global Research Site 002,Florida,Miami,33175,,
NCT05078827,SKIP,CBCC Global Research Site 003,Florida,Miramar,33027,,
NCT05078827,"SKIP",CBCC Global Research Site 007,Pennsylvania,Sugarloaf,18249,,
NCT02760576,"SKIP","nan",New Jersey,Union,07083,,
NCT01559922,SKIP,Call Suneva for Info,California,Beverly Hills,90210,,
NCT01559922,SKIP,Call Suneva for Info,California,Los Angeles,90036,,
NCT01559922,SKIP,Call Suneva for Info,California,San Diego,92121,,
NCT01559922,SKIP,Call Suneva for Info,California,Santa Monica,90404,,
NCT01559922,SKIP,Call Suneva for Info,Florida,Miami Beach,33137,,
NCT01559922,SKIP,Call Suneva for Info,Florida,St. Petersburg,33716,,
NCT01559922,SKIP,Call Suneva for Info,Maryland,Glenn Dale,20769,,
NCT01559922,SKIP,Call Suneva for Info,Massachusetts,Wellesley,02481,,
NCT01559922,SKIP,Call Suneva for Info,Texas,Houston,77056,,
NCT01559922,"SKIP",Call Suneva for Info,Washington,Spokane,99204,,
NCT02930746,"SKIP","nan",New Jersey,Union,07083,,
NCT02754102,SKIP,nan,New Jersey,Piscataway,08854,,
NCT02822274,"SKIP","nan",New Jersey,Union,07083,,
NCT02930785,"SKIP",nan,New Jersey,Union,07083,,
NCT02995135,"SKIP",nan,New Jersey,Union,07083,,
NCT02815241,"SKIP",nan,New Jersey,Union,07083,,
NCT02779829,"SKIP",nan,New Jersey,Union,07083,,
NCT02936583,"SKIP",nan,New Jersey,Union,07083,,
NCT02930798,"SKIP",nan,New Jersey,Union,07083,,
NCT02825030,"SKIP",nan,New Jersey,Union,07083,,
NCT02776501,"SKIP","nan",New Jersey,Union,07083,,
NCT03327311,"SKIP",Call Suneva for Info,California,Danville,94506,,
NCT02751463,"SKIP","nan",New Jersey,Piscataway,08854,,
NCT02995161,"SKIP",nan,New Jersey,Union,07083,,
NCT02779270,"SKIP",nan,Florida,St. Petersburg,33714,,
NCT02803021,"SKIP",nan,New Jersey,Union,07083,,
NCT02757014,"SKIP",nan,New Jersey,Union,07083,,
NCT02823496,"SKIP","nan",New Jersey,Piscataway,08854,,
NCT02825017,"SKIP",nan,New Jersey,Union,07083,,
NCT02756988,SKIP,nan,New Jersey,Union,07083,,
NCT02779842,SKIP,nan,New Jersey,Union,07083,,
NCT02885805,"SKIP","nan",New Jersey,Union,07083,,
NCT02930759,"SKIP",nan,New Jersey,Union,07083,,
NCT00714714,"SKIP","A J&J CPPW Investigational Site",Pennsylvania,Broomall,19008,,
NCT02751489,"SKIP",nan,New Jersey,Piscataway,08854,,
NCT02857725,"SKIP",nan,New Jersey,Union,07083,,
NCT02032407,"SKIP",nan,District of Columbia,Washington D.C.,nan,,
NCT01973166,"SKIP",nan,California,Brisbane,94005,,
NCT02750475,"SKIP","nan",New Jersey,Piscataway,08854,,
NCT02995044,"SKIP",nan,New Jersey,Union,07083,,
NCT02823509,"SKIP",nan,New Jersey,Union,07083,,
NCT00219466,"SKIP","JJCPPW Investigational Site",Florida,St. Petersburg,33710,,
NCT06109649,SKIP,CLINUVEL site,Alabama,Birmingham,00000,,
NCT06109649,SKIP,CLINUVEL site,California,Fresno,00000,,
NCT06109649,SKIP,CLINUVEL site,California,Los Angeles,00000,,
NCT06109649,SKIP,CLINUVEL site,California,Palo Alto,00000,,
NCT06109649,SKIP,CLINUVEL site,California,San Diego,00000,,
NCT06109649,SKIP,CLINUVEL Site,District of Columbia,Washington D.C.,00000,,
NCT06109649,SKIP,CLINUVEL site,Florida,Miami,00000,,
NCT06109649,SKIP,CLINUVEL site,Florida,Miramar,00000,,
NCT06109649,SKIP,CLINUVEL site,Georgia,Alpharetta,00000,,
NCT06109649,SKIP,CLINUVEL site,Georgia,Augusta,00000,,
NCT06109649,SKIP,CLINUVEL site,Illinois,Chicago,00000,,
NCT06109649,SKIP,CLINUVEL site,Louisiana,Baton Rouge,00000,,
NCT06109649,SKIP,CLINUVEL site,Michigan,Detroit,00000,,
NCT06109649,SKIP,CLINUVEL site,Minnesota,Minneapolis,00000,,
NCT06109649,SKIP,CLINUVEL site,Minnesota,Roseville,00000,,
NCT06109649,SKIP,CLINUVEL Site,Missouri,Lee's Summit,00000,,
NCT06109649,SKIP,CLINUVEL site,New York,Rochester,00000,,
NCT06109649,SKIP,CLINUVEL site,Ohio,Cleveland,00000,,
NCT06109649,SKIP,CLINUVEL site,Pennsylvania,Philadelphia,00000,,
NCT06109649,SKIP,CLINUVEL Site,South Carolina,Charleston,00000,,
NCT06109649,SKIP,CLINUVEL site,Tennessee,Thompson's Station,00000,,
NCT06109649,SKIP,CLINUVEL Site,Texas,Cedar Park,00000,,
NCT06109649,SKIP,CLINUVEL site,Texas,Dallas,00000,,
NCT06109649,SKIP,CLINUVEL site,Texas,Tyler,00000,,
NCT06109649,"SKIP",CLINUVEL site,Virginia,Charlottesville,00000,,
NCT02803008,"SKIP",nan,New Jersey,Union,07083,,
NCT02751372,"SKIP","nan",New Jersey,Piscataway,08854,,
NCT02052752,SKIP,GSK Investigational Site,North Carolina,High Point,27262,,
NCT02803047,SKIP,nan,New Jersey,Union,07083,,
NCT02891057,"SKIP",nan,New Jersey,Union,07083,,
NCT02717325,"SKIP",nan,New Jersey,Union,07083,,
NCT02751515,"SKIP",nan,New Jersey,Piscataway,08854,,
NCT02822313,"SKIP",nan,New Jersey,Union,07083,,
NCT02995122,SKIP,nan,New Jersey,Union,07083,,
NCT02788162,SKIP,nan,New Jersey,Union,07083,,
NCT02411162,"SKIP",GSK Investigational Site,Illinois,Urbana,61801,,
NCT02774252,SKIP,nan,New Jersey,Union,07083,,
NCT01635855,SKIP,nan,Alabama,Birmingham,nan,,
NCT01635855,SKIP,nan,California,Los Angeles,90069,,
NCT01635855,SKIP,nan,California,Los Angeles,nan,,
NCT01635855,SKIP,nan,California,San Francisco,nan,,
NCT01635855,SKIP,nan,Connecticut,New Haven,nan,,
NCT01635855,SKIP,nan,Louisiana,Metairie,nan,,
NCT01635855,SKIP,nan,Maryland,Glenn Dale,nan,,
NCT01635855,SKIP,nan,New Jersey,Montclair,nan,,
NCT01635855,"SKIP",nan,New York,White Plains,nan,,
NCT03478644,"SKIP",GSK Investigational Site,Indiana,Fort Wayne,46825,,
NCT02750488,"SKIP",nan,New Jersey,Piscataway,08854,,
NCT02831478,"SKIP",nan,Florida,St. Petersburg,33714,,
NCT02936570,"SKIP",nan,New Jersey,Union,07083,,
NCT02872233,"SKIP","nan",New Jersey,Union,07083,,
NCT04085809,"SKIP",Sandoz Investigational Site,North Carolina,High Point,27262,,
NCT02995018,"SKIP","nan",New Jersey,Union,07083,,
NCT02857738,"SKIP",nan,New Jersey,Union,07083,,
NCT05109104,"SKIP",GSK Investigational Site,North Carolina,Winston-Salem,27101,,
NCT02803034,"SKIP",nan,New Jersey,Union,07083,,
NCT02682628,"SKIP",nan,New Jersey,Union,07083,,
NCT02842268,"SKIP",nan,Florida,St. Petersburg,33714,,
NCT02802930,"SKIP",nan,Florida,Pinellas Park,33781,,
NCT02750449,"SKIP",nan,New Jersey,Piscataway,08854,,
NCT02803060,"SKIP","nan",New Jersey,Union,07083,,
NCT05085327,"SKIP","GSK Investigational Site",North Carolina,Winston-Salem,27101,,
NCT05419505,SKIP,Endo Clinical Trial Site #6,Arizona,Scottsdale,85255,,
NCT05419505,SKIP,Endo Clinical Trial Site #4,California,Beverly Hills,90210,,
NCT05419505,SKIP,Endo Clinical Trial Site #9,California,Encinitas,92024,,
NCT05419505,SKIP,Endo Clinical Trial Site #10,California,San Diego,92121,,
NCT05419505,SKIP,Endo Clinical Trial Site #7,California,Solana Beach,92075,,
NCT05419505,SKIP,Endo Clinical Trial Site #12,Colorado,Greenwood Village,80111,,
NCT05419505,SKIP,Endo Clinical Trial Site #8,Florida,Coral Gables,33146,,
NCT05419505,SKIP,Endo Clinical Trial Site #13,Florida,Miami,33137,,
NCT05419505,SKIP,Endo Clinical Trial Site #3,Illinois,Chicago,60611,,
NCT05419505,SKIP,Endo Clinical Trial Site #2,Louisiana,Metairie,700006,,
NCT05419505,SKIP,Endo Clinical Trial Site #11,New York,New York,10021,,
NCT05419505,SKIP,Endo Clinical Trial Site #1,Tennessee,Nashville,37215,,
NCT05419505,"SKIP",Endo Clinical Trial Site #5,Texas,Pflugerville,78660,,
NCT02962856,"SKIP",nan,New Jersey,Piscataway,08854,,
NCT02822261,"SKIP",nan,New Jersey,Union,07083,,
NCT02717351,SKIP,nan,New Jersey,Union,07083,,
NCT02822248,"SKIP",nan,New Jersey,Union,07083,,
NCT05027282,"SKIP",Bausch Site 001,Texas,Dallas,75225,,
NCT04029545,"Skintastic, Plano, Texas 75093",Skintastic,Texas,Plano,75093,,
NCT03400202,"SkinMedica Clinical Research and Innovation Center, Irvine, California 92612",SkinMedica Clinical Research and Innovation Center,California,Irvine,92612,,
NCT03302559,"SkinMedica Clinical Research and Innovation Center, Irvine, California 92612",SkinMedica Clinical Research and Innovation Center,California,Irvine,92612,,
NCT03767400,"Skinmedica Clinical Research and Innovation Center, Irvine, California 92612",Skinmedica Clinical Research and Innovation Center,California,Irvine,92612,,
NCT03243617,"Skincare Physicians, Chestnut Hill, Massachusetts 02467",Skincare Physicians,Massachusetts,Chestnut Hill,02467,,
NCT03125824,"SkinCare Physicians, Chestnut Hill, Massachusetts 02467",SkinCare Physicians,Massachusetts,Chestnut Hill,02467,,
NCT02877667,"SkinCare Physicians, Chestnut Hill, Massachusetts 02467",SkinCare Physicians,Massachusetts,Chestnut Hill,02467,,
NCT03228641,"SkinCare Physicians, Chestnut Hill, Massachusetts 02467",SkinCare Physicians,Massachusetts,Chestnut Hill,02467,,
NCT07041489,"Skin Wellness Dermatology, Birmingham, Alabama 35209","Skin Wellness Dermatology",Alabama,Birmingham,35209,,
NCT06602284,"Skin Wellness Dermatology, Birmingham, Alabama 35209",Skin Wellness Dermatology,Alabama,Birmingham,35209,,
NCT06333067,"Skin Wellness Dermatology Associates, Durham, North Carolina 27713",Skin Wellness Dermatology Associates,North Carolina,Durham,27713,,
NCT06148558,"Skin Study Center, KGL LLC, Newtown Square, Pennsylvania 19073","Skin Study Center, KGL LLC",Pennsylvania,Newtown Square,19073,,
NCT01313728,"Skin Study Center, Broomall, Pennsylvania 19008",Skin Study Center,Pennsylvania,Broomall,19008,,
NCT00952523,"Skin Study Center, Broomall, Pennsylvania 19008",Skin Study Center,Pennsylvania,Broomall,19008,,
NCT00919191,"Skin Study Center, Broomall, Pennsylvania 19008","Skin Study Center",Pennsylvania,Broomall,19008,,
NCT04029545,"Skin Specialists, PC, Omaha, Nebraska 68144","Skin Specialists, PC",Nebraska,Omaha,68144,,
NCT05372419,"Skin Specialists, P.C, Omaha, Nebraska 68144","Skin Specialists, P.C",Nebraska,Omaha,68144,,
NCT06415305,"Skin Sciences, PLLC, Louisville, Kentucky 40217","Skin Sciences, PLLC",Kentucky,Louisville,40217,,
NCT04695691,"Skin Research Institute, Coral Gables, Florida 33146",Skin Research Institute,Florida,Coral Gables,33146,,
NCT03421691,"Skin Laser and Surgery Specialists of NY and NJ, New York, New York 10022",Skin Laser and Surgery Specialists of NY and NJ,New York,New York,10022,,
NCT04695691,"Skin Laser & Surgery Specialists, a Division of Schweiger Dermatology, Hackensack, New Jersey 07601","Skin Laser & Surgery Specialists, a Division of Schweiger Dermatology",New Jersey,Hackensack,07601,,
NCT02217228,"Skin Laser & Surgery Specialists of NY & NJ, Hackensack, New Jersey 07601","Skin Laser & Surgery Specialists of NY & NJ",New Jersey,Hackensack,07601,,
NCT02488083,"Skin Laser & Surgery Specialist of NY/NJ, Hackensack, New Jersey 07601","Skin Laser & Surgery Specialist of NY/NJ",New Jersey,Hackensack,07601,,
NCT03430245,"Skin Laser & Surgery Specialist of NY/NJ, Hackensack, New Jersey 07601",Skin Laser & Surgery Specialist of NY/NJ,New Jersey,Hackensack,07601,,
NCT01147172,"Skin Care Research, Inc., Boca Raton, Florida 33486","Skin Care Research, Inc.",Florida,Boca Raton,33486,,
NCT05372419,"Skin Care Research, Inc, Hollywood, Florida 33021","Skin Care Research, Inc",Florida,Hollywood,33021,,
NCT01950065,"Skin Care Physicians, Chestnut Hill, Massachusetts 02467",Skin Care Physicians,Massachusetts,Chestnut Hill,02467,,
NCT02700152,"Skin Care Physicians, Chestnut Hill, Massachusetts 02467",Skin Care Physicians,Massachusetts,Chestnut Hill,02467,,
NCT03290547,"Skin Care Physicians, Chestnut Hill, Massachusetts 02467",Skin Care Physicians,Massachusetts,Chestnut Hill,02467,,
NCT02935660,"Skin Care Physicians, Chestnut Hill, Massachusetts 02467",Skin Care Physicians,Massachusetts,Chestnut Hill,02467,,
NCT01754233,"Skin Care Physicians, Chestnut Hill, Massachusetts 02467",Skin Care Physicians,Massachusetts,Chestnut Hill,02467,,
NCT01754246,"Skin Care Physicians, Chestnut Hill, Massachusetts 02467",Skin Care Physicians,Massachusetts,Chestnut Hill,02467,,
NCT05372419,"Skin Care Physicians of Georgia, Macon, Georgia 31217",Skin Care Physicians of Georgia,Georgia,Macon,31217,,
NCT04540900,"Skin and Cancer Associates, LLP. D/B/A Center for Clinical and Cosmetic Research, Aventura, Florida 33180","Skin and Cancer Associates, LLP. D/B/A Center for Clinical and Cosmetic Research",Florida,Aventura,33180,,
NCT05590585,"Skin and Cancer Associates, LLP, Miami, Florida 33137","Skin and Cancer Associates, LLP",Florida,Miami,33137,,
NCT05171894,"Skin and Cancer Associates (SCA) and the Center for Cosmetic Enhancement (CCE), Aventura, Florida 33180",Skin and Cancer Associates (SCA) and the Center for Cosmetic Enhancement (CCE),Florida,Aventura,33180,,
NCT00027976,"Siteman Cancer Center at Barnes-Jewish Hospital, St Louis, Missouri 63110",Siteman Cancer Center at Barnes-Jewish Hospital,Missouri,St Louis,63110,,
NCT02115646,"Shriners Hospital- Boston, Boston, Massachusetts 02114",Shriners Hospital- Boston,Massachusetts,Boston,02114,,
NCT01452490,"Shoreline Foot and Ankle Center, Westbrook, Connecticut 06498",Shoreline Foot and Ankle Center,Connecticut,Westbrook,06498,,
NCT01452490,"Shoreline Foot and Ankle Center, New London, Connecticut 06320","Shoreline Foot and Ankle Center",Connecticut,New London,06320,,
NCT05089851,"Shino Bay Cosmetic Dermatology and Laser Institute, Fort Lauderdale, Florida 33301",Shino Bay Cosmetic Dermatology and Laser Institute,Florida,Fort Lauderdale,33301,,
NCT02217228,"Shideler Clinical Research Center, Carmel, Indiana 46032",Shideler Clinical Research Center,Indiana,Carmel,46032,,
NCT00702507,"Sheila Fallon Friedlander, MD, San Diego, California 92123","Sheila Fallon Friedlander, MD",California,San Diego,92123,,
NCT05271136,"SGS Stephens, Inc., Richardson, Texas 75081","SGS Stephens, Inc.",Texas,Richardson,75081,,
NCT06629792,"SGS Stephens, inc., Richardson, Texas 75081","SGS Stephens, inc.",Texas,Richardson,75081,,
NCT05045183,"SGS Stephens, Inc. Dallas Research Center, Richardson, Texas 75081","SGS Stephens, Inc. Dallas Research Center",Texas,Richardson,75081,,
NCT05012735,"SGS Stephens Inc., Richardson, Texas 75081",SGS Stephens Inc.,Texas,Richardson,75081,,
NCT06854575,"SGS Phoenix Research Center, Phoenix, Arizona 85029",SGS Phoenix Research Center,Arizona,Phoenix,85029,,
NCT06854575,"SGS Elizabeth Research Center, Elizabeth, New Jersey 07208",SGS Elizabeth Research Center,New Jersey,Elizabeth,07208,,
NCT06854575,"SGS Dallas Research Center, Richardson, Texas 75081",SGS Dallas Research Center,Texas,Richardson,75081,,
NCT05590585,"SF Research Institute, San Francisco, California 94127",SF Research Institute,California,San Francisco,94127,,
NCT03921814,"Sera Collection, Montebello, California 90640",Sera Collection,California,Montebello,90640,,
NCT00992277,"Scripps Health, San Diego, California 92130",Scripps Health,California,San Diego,92130,,
NCT06415435,"Scripps Health, La Jolla, California 92037",Scripps Health,California,La Jolla,92037,,
NCT03322475,"Scripps Clinical Research Services, La Jolla, California 92037",Scripps Clinical Research Services,California,La Jolla,92037,,
NCT02244554,"Scripps Clinic Carmel Valley, San Diego, California 92130",Scripps Clinic Carmel Valley,California,San Diego,92130,,
NCT02468453,"Scripps Clinic - Carmel Valley, San Diego, California 92130",Scripps Clinic - Carmel Valley,California,San Diego,92130,,
NCT06469398,"Schweiger Dermatology PC, Reseach Division, Hackensack, New Jersey 07601","Schweiger Dermatology PC, Reseach Division",New Jersey,Hackensack,07601,,
NCT05372419,"Savin Medical Group, LLC, Miami Lakes, Florida 33014","Savin Medical Group, LLC",Florida,Miami Lakes,33014,,
NCT05123508,"Sanctuary Plastic Surgery, Boca Raton, Florida 33431",Sanctuary Plastic Surgery,Florida,Boca Raton,33431,,
NCT06363240,"Sanctuary Plastic Surgery, Boca Raton, Florida 33431",Sanctuary Plastic Surgery,Florida,Boca Raton,33431,,
NCT05750901,"Sanctuary Plastic Surgery, Boca Raton, Florida 33431",Sanctuary Plastic Surgery,Florida,Boca Raton,33431,,
NCT02711618,"Sanctuary Plastic Surgery, Boca Raton, Florida 33431",Sanctuary Plastic Surgery,Florida,Boca Raton,33431,,
NCT01597323,"Sanctuary Medical Aesthetic Center, Boca Raton, Florida 33431","Sanctuary Medical Aesthetic Center",Florida,Boca Raton,33431,,
NCT01030198,"Sanctuary Medical Aesthetic Center, Boca Raton, Florida 33431","Sanctuary Medical Aesthetic Center",Florida,Boca Raton,33431,,
NCT01912950,"Sadick Research Group, New York, New York 10075",Sadick Research Group,New York,New York,10075,,
NCT02003833,"Sadick Research Group, New York, New York 10075",Sadick Research Group,New York,New York,10075,,
NCT02110108,"Sadick Research Group, New York, New York 10075","Sadick Research Group",New York,New York,10075,,
NCT05372419,"Sadick Research Group, New York, New York 10075",Sadick Research Group,New York,New York,10075,,
NCT03921814,"Sadick Research Group, New York, New York 10075","Sadick Research Group",New York,New York,10075,,
NCT00981461,"Sadick Research Group, New York, New York 10075","Sadick Research Group",New York,New York,10075,,
NCT02924428,"Sadick Research Group, New York, New York 10075",Sadick Research Group,New York,New York,10075,,
NCT03284333,"Sadick Dermatology/Sadick Research Center, New York, New York 10075",Sadick Dermatology/Sadick Research Center,New York,New York,10075,,
NCT01950065,"Roseville Facial Plastic Surgery, Roseville, California 95661",Roseville Facial Plastic Surgery,California,Roseville,95661,,
NCT02452359,"Rosenberg Plastic Surgery, Beverly Hills, California 90211",Rosenberg Plastic Surgery,California,Beverly Hills,90211,,
NCT05750914,"Rochester Dermatologic Surgery, Victor, New York 14654",Rochester Dermatologic Surgery,New York,Victor,14654,,
NCT02772276,"Riverside Clinical Research, Edgewater, Florida 32132",Riverside Clinical Research,Florida,Edgewater,32132,,
NCT00375544,"Richard Neiman, M.D., Kirkland, Washington 98034","Richard Neiman, M.D.",Washington,Kirkland,98034,,
NCT05590585,"RFSA Dermatology, San Antonio, Texas 78213",RFSA Dermatology,Texas,San Antonio,78213,,
NCT02770287,"Revive Wellness Center, Torrance, California 90505",Revive Wellness Center,California,Torrance,90505,,
NCT05372419,"Revival Research Institute - Troy, Troy, Michigan 48084",Revival Research Institute - Troy,Michigan,Troy,48084,,
NCT05590585,"Revival Research Institute , LLC, Troy, Michigan 48084","Revival Research Institute , LLC",Michigan,Troy,48084,,
NCT06436261,"Resurrect Skin MD, Dallas, Texas 75225",Resurrect Skin MD,Texas,Dallas,75225,,
NCT03242577,"Reliance Clinical Testing Services, Irving, Texas 75062",Reliance Clinical Testing Services,Texas,Irving,75062,,
NCT03346447,"Reliance Clinical Testing Services, Irving, Texas 75062","Reliance Clinical Testing Services",Texas,Irving,75062,,
NCT02979210,"Reliance Clinical Testing Service, Irving, Texas 75062",Reliance Clinical Testing Service,Texas,Irving,75062,,
NCT02615912,"Reliance Clinical Testing Service, Irving, Texas 75062","Reliance Clinical Testing Service",Texas,Irving,75062,,
NCT06415435,"Refresh Dermatology, Houston, Texas 77081",Refresh Dermatology,Texas,Houston,77081,,
NCT04936919,"RefinedMD, Los Gatos, California 95032","RefinedMD",California,Los Gatos,95032,,
NCT03970317,"Refined Dermatology, Los Gatos, California 95032",Refined Dermatology,California,Los Gatos,95032,,
NCT03944278,"Refined Dermatology, Los Gatos, California 95032",Refined Dermatology,California,Los Gatos,95032,,
NCT03820076,"RCTS, Inc., Irving, Texas 75062","RCTS, Inc.",Texas,Irving,75062,,
NCT01437163,"Raymond J. Lanzafame, MD, Rochester, New York 14617","Raymond J. Lanzafame, MD",New York,Rochester,14617,,
NCT05590585,"Rao Dermatology, Atlantic Highlands, New Jersey 07716",Rao Dermatology,New Jersey,Atlantic Highlands,07716,,
NCT03590756,"Ragle Human Nutrition Research Center, Davis, California 95616",Ragle Human Nutrition Research Center,California,Davis,95616,,
NCT01347879,"Rady Children's Hospital, San Diego, California 92123","Rady Children's Hospital",California,San Diego,92123,,
NCT05372419,"PureSkin Dermatology, Orlando, Florida 32819",PureSkin Dermatology,Florida,Orlando,32819,,
NCT05372419,"Progressive Clinical Research, San Antonio, Texas 78213","Progressive Clinical Research",Texas,San Antonio,78213,,
NCT05254210,"Profiles Beverly Hills, West Hollywood, California 90069","Profiles Beverly Hills",California,West Hollywood,90069,,
NCT01347879,"Premier Clinical Research, Spokane, Washington 99216",Premier Clinical Research,Washington,Spokane,99216,,
NCT03818555,"Premier Clinical Research, Spokane, Washington 99202",Premier Clinical Research,Washington,Spokane,99202,,
NCT02748928,"Prana Medical Aesthetics, Jacksonville Beach, Florida 32250","Prana Medical Aesthetics",Florida,Jacksonville Beach,32250,,
NCT06473974,"Pioneer Clinical research, New York, New York 10016",Pioneer Clinical research,New York,New York,10016,,
NCT04269317,"Physicians Laser and Dermatology Institute, Chicago, Illinois 60611",Physicians Laser and Dermatology Institute,Illinois,Chicago,60611,,
NCT05590585,"Philip Fried, MD PLLC, The Bronx, New York 10463","Philip Fried, MD PLLC",New York,The Bronx,10463,,
NCT02260180,"Philadelphia Institute of Dermatology, Fort Washington, Pennsylvania 19034","Philadelphia Institute of Dermatology",Pennsylvania,Fort Washington,19034,,
NCT01437163,"Peter S. Halperin, MD, New York, New York 10065","Peter S. Halperin, MD",New York,New York,10065,,
NCT01347879,"Penn State Hershey Medical Center, Hershey, Pennsylvania 17033","Penn State Hershey Medical Center",Pennsylvania,Hershey,17033,,
NCT02217228,"Penn State Hershey Medical Center, Hershey, Pennsylvania 17033",Penn State Hershey Medical Center,Pennsylvania,Hershey,17033,,
NCT00922623,"Pearl E Grimes, Los Angeles, California 90036",Pearl E Grimes,California,Los Angeles,90036,,
NCT04738734,"Palm Harbor Dermatology, Clearwater, Florida 34685",Palm Harbor Dermatology,Florida,Clearwater,34685,,
NCT02772276,"Orlando Clinical Research Center, Orlando, Florida 32809",Orlando Clinical Research Center,Florida,Orlando,32809,,
NCT02260180,"Oregon Medical Research Center, Portland, Oregon 97223",Oregon Medical Research Center,Oregon,Portland,97223,,
NCT05590585,"Oregon Health & Science University, Portland, Oregon 97239",Oregon Health & Science University,Oregon,Portland,97239,,
NCT00594425,"Oregon Dermatology and Research Center, Portland, Oregon 97210",Oregon Dermatology and Research Center,Oregon,Portland,97210,,
NCT01026441,"Orange Coast Women's Medical Group, Laguna Hills, California 92653",Orange Coast Women's Medical Group,California,Laguna Hills,92653,,
NCT05321784,"OHSU Knight Cancer Institute, Portland, Oregon 97239",OHSU Knight Cancer Institute,Oregon,Portland,97239,,
NCT05235334,"Office of Jashin J. Wu, MD, Irvine, California 92620","Office of Jashin J. Wu, MD",California,Irvine,92620,,
NCT05372419,"Oakland Hills Dermatology, Auburn Hills, Michigan 48326",Oakland Hills Dermatology,Michigan,Auburn Hills,48326,,
NCT04738734,"Oak Dermatology, Joliet, Illinois 60435","Oak Dermatology",Illinois,Joliet,60435,,
NCT04248699,"o ObvioHealth, Orlando, Florida 32817",o ObvioHealth,Florida,Orlando,32817,,
NCT02067260,"NYU School of Medicine, New York, New York 10003",NYU School of Medicine,New York,New York,10003,,
NCT05590585,"NYC Health + Hospital , Elmhurst Hospital Center, Elmhurst, New York 11373","NYC Health + Hospital , Elmhurst Hospital Center",New York,Elmhurst,11373,,
NCT05773924,"NY Laser Skin Care, New York, New York 10028",NY Laser Skin Care,New York,New York,10028,,
NCT01745224,"NY Laser and Skin Care, New York, New York 10028",NY Laser and Skin Care,New York,New York,10028,,
NCT02110134,"NY Laser and Skin Care, New York, New York 10028","NY Laser and Skin Care",New York,New York,10028,,
NCT02528552,"NW Dermatology & Research Center, LLC, Portland, Oregon 97210","NW Dermatology & Research Center, LLC",Oregon,Portland,97210,,
NCT06749808,"Nu Skin, Provo, Utah 84601",Nu Skin,Utah,Provo,84601,,
NCT02431494,"NSU COM Division of Dermatology, General, Cosmetic Dermatology and Cutaneous Surgery, Fort Lauderdale, Florida 33328","NSU COM Division of Dermatology, General, Cosmetic Dermatology and Cutaneous Surgery",Florida,Fort Lauderdale,33328,,
NCT04558242,"NST Consultants, Inc., Mendham, New Jersey 07945","NST Consultants, Inc.",New Jersey,Mendham,07945,,
NCT01281644,"Northwestern University, Chicago, Illinois 60611",Northwestern University,Illinois,Chicago,60611,,
NCT01529983,"Northwestern University Feinberg School of Medicine, Department of Dermatology, Chicago, Illinois 60611","Northwestern University Feinberg School of Medicine, Department of Dermatology",Illinois,Chicago,60611,,
NCT02427724,"Northwestern University Feinberg School of Medicine, Department of Dermatology, Chicago, Illinois 60611","Northwestern University Feinberg School of Medicine, Department of Dermatology",Illinois,Chicago,60611,,
NCT03057964,"Northwestern University Feinberg School of Medicine, Department of Dermatology, Chicago, Illinois 60611","Northwestern University Feinberg School of Medicine, Department of Dermatology",Illinois,Chicago,60611,,
NCT00894244,"Northwestern University Feinberg School of Medicine, Department of Dermatology, Chicago, Illinois 60611","Northwestern University Feinberg School of Medicine, Department of Dermatology",Illinois,Chicago,60611,,
NCT02318654,"Northwestern University Feinberg School of Medicine, Department of Dermatology, Chicago, Illinois 60611","Northwestern University Feinberg School of Medicine, Department of Dermatology",Illinois,Chicago,60611,,
NCT03066843,"Northwestern University Feinberg School of Medicine, Department of Dermatology, Chicago, Illinois 60611","Northwestern University Feinberg School of Medicine, Department of Dermatology",Illinois,Chicago,60611,,
NCT01905891,"Northwestern Memorial Hospital, Chicago, Illinois 60611",Northwestern Memorial Hospital,Illinois,Chicago,60611,,
NCT05590585,"Northwestern Memorial Hospital, Chicago, Illinois 60611",Northwestern Memorial Hospital,Illinois,Chicago,60611,,
NCT01347879,"North Florida Dermatology Associates, Jacksonville, Florida 32204",North Florida Dermatology Associates,Florida,Jacksonville,32204,,
NCT02663921,"New York University School of Medicine, New York, New York 10016",New York University School of Medicine,New York,New York,10016,,
NCT01335581,"New York Laser and Skin Care, New York, New York 10028",New York Laser and Skin Care,New York,New York,10028,,
NCT02146807,"New York Laser and Skin Care, New York, New York 10028",New York Laser and Skin Care,New York,New York,10028,,
NCT01796626,"New York Laser & Skin Care, New York, New York 10028",New York Laser & Skin Care,New York,New York,10028,,
NCT04146584,"New York Laser & Skin Care, New York, New York 10028",New York Laser & Skin Care,New York,New York,10028,,
NCT02592993,"New York Laser & Skin Care, New York, New York 10028",New York Laser & Skin Care,New York,New York,10028,,
NCT06938815,"New York Harbor VA Brooklyn Campus, Brooklyn, New York 11209","New York Harbor VA Brooklyn Campus",New York,Brooklyn,11209,,
NCT05662592,"New Jersey Plastic Surgery, Montclair, New Jersey 07042",New Jersey Plastic Surgery,New Jersey,Montclair,07042,,
NCT03969485,"New Jersey Clinical Research Center, Montclair, New Jersey 07042",New Jersey Clinical Research Center,New Jersey,Montclair,07042,,
NCT00402129,"Naval Medical Center San Diego, San Diego, California 92134",Naval Medical Center San Diego,California,San Diego,92134,,
NCT01771679,"Naval Medical Center San Diego, San Diego, California 92134",Naval Medical Center San Diego,California,San Diego,92134,,
NCT02778152,"Nationwide Children's Hospital, Columbus, Ohio 43205",Nationwide Children's Hospital,Ohio,Columbus,43205,,
NCT03276065,"Nationwide Children's Hospital, Columbus, Ohio 43205",Nationwide Children's Hospital,Ohio,Columbus,43205,,
NCT05590585,"National Allergy and Asthma Research, LLC., North Charleston, South Carolina 29420","National Allergy and Asthma Research, LLC.",South Carolina,North Charleston,29420,,
NCT02297321,"Nashville Centre for Laser and Facial Surgery, Nashville, Tennessee 37203",Nashville Centre for Laser and Facial Surgery,Tennessee,Nashville,37203,,
NCT01950065,"Nashville Center for Laser and Facial Surgery, Nashville, Tennessee 37203",Nashville Center for Laser and Facial Surgery,Tennessee,Nashville,37203,,
NCT03228641,"Nashville Center for Laser & Facial Surgery, Nashville, Tennessee 37203",Nashville Center for Laser & Facial Surgery,Tennessee,Nashville,37203,,
NCT05767008,"Nanometics, La Jolla, California 92037",Nanometics,California,La Jolla,92037,,
NCT06477172,"N2 Aesthetics, Manhattan Beach, California 90266",N2 Aesthetics,California,Manhattan Beach,90266,,
NCT06477172,"N2 Aesthetics, Manhattan Beach, California 90266","N2 Aesthetics",California,Manhattan Beach,90266,,
NCT03945383,"My Community Research Center, Miami, Florida 33155",My Community Research Center,Florida,Miami,33155,,
NCT04738734,"Moy-Fincher-Chipps Dermatology, Beverly Hills, California 90210","Moy-Fincher-Chipps Dermatology",California,Beverly Hills,90210,,
NCT03506477,"Mount Sinai West, New York, New York 10023","Mount Sinai West",New York,New York,10023,,
NCT03681470,"Mount Sinai West, New York, New York 10023",Mount Sinai West,New York,New York,10023,,
NCT04571567,"Mount Sinai West Dermatolgy, New York, New York 10023",Mount Sinai West Dermatolgy,New York,New York,10023,,
NCT00941278,"Mount Sinai School of Medicine, New York, New York 10029",Mount Sinai School of Medicine,New York,New York,10029,,
NCT00555646,"Mount Sinai School of Medicine, New York, New York 10029",Mount Sinai School of Medicine,New York,New York,10029,,
NCT01247818,"Mount Sinai School of Medicine, New York, New York 10029",Mount Sinai School of Medicine,New York,New York,10029,,
NCT03409965,"Moradi M.D., Vista, California 92083","Moradi M.D.",California,Vista,92083,,
NCT04540900,"Mission Dermatology, Rancho Santa Margarita, California 92688",Mission Dermatology,California,Rancho Santa Margarita,92688,,
NCT06477172,"Mirror Plastic Surgery, St. Petersburg, Florida 33701",Mirror Plastic Surgery,Florida,St. Petersburg,33701,,
NCT00933543,"Minnesota Clinical Study Center, Fridley, Minnesota 55432",Minnesota Clinical Study Center,Minnesota,Fridley,55432,,
NCT00933543,"Milton S. Hershey Medical Center, Hershey, Pennsylvania 17033",Milton S. Hershey Medical Center,Pennsylvania,Hershey,17033,,
NCT04957446,"Michelle Malanga, New York, New York 10075",Michelle Malanga,New York,New York,10075,,
NCT04185909,"Michael Lin, MD, Sherman Oaks, California 91403","Michael Lin, MD",California,Sherman Oaks,91403,,
NCT00947505,"Michael Jarratt, MD, Austin, Texas 78759","Michael Jarratt, MD",Texas,Austin,78759,,
NCT03286283,"Miami Plastic Surgery, Miami, Florida 33176",Miami Plastic Surgery,Florida,Miami,33176,,
NCT05372419,"Miami Dermatology and Laser Research, Miami, Florida 33173",Miami Dermatology and Laser Research,Florida,Miami,33173,,
NCT04202419,"Miami Dermatology and Laser Institute, Miami, Florida 33173",Miami Dermatology and Laser Institute,Florida,Miami,33173,,
NCT05171894,"Miami Dermatology and Laser Institute, Miami, Florida 33173",Miami Dermatology and Laser Institute,Florida,Miami,33173,,
NCT03573271,"Miami Dermatology and Laser Institute, Miami, Florida 33173",Miami Dermatology and Laser Institute,Florida,Miami,33173,,
NCT03583918,"Miami Dermatology and Laser Institute, Miami, Florida 33173","Miami Dermatology and Laser Institute",Florida,Miami,33173,,
NCT03793348,"Miami Dermatology & Laser Institute, Miami, Florida 33173","Miami Dermatology & Laser Institute",Florida,Miami,33173,,
NCT03818555,"Miami Dermatology & Laser Institute, Miami, Florida 33173",Miami Dermatology & Laser Institute,Florida,Miami,33173,,
NCT02268474,"Miami Dermatology & Laser Institute, Miami, Florida 33173",Miami Dermatology & Laser Institute,Florida,Miami,33173,,
NCT03782038,"Miami Dermatology & Laser Institute, Miami, Florida 33173",Miami Dermatology & Laser Institute,Florida,Miami,33173,,
NCT02217228,"Miami Dermatology & Laser Institute, Miami, Florida 33173","Miami Dermatology & Laser Institute",Florida,Miami,33173,,
NCT05411484,"MGH Clinical Unit for Research Trials And Outcome, Boston, Massachusetts 02114",MGH Clinical Unit for Research Trials And Outcome,Massachusetts,Boston,02114,,
NCT04839692,"MGH Clinical Unit for Research Trials & Outcomes Research, Boston, Massachusetts 02114",MGH Clinical Unit for Research Trials & Outcomes Research,Massachusetts,Boston,02114,,
NCT04567537,"MGH Clinical Unit for Research Trials & Outcomes in Skin, Boston, Massachusetts 02114",MGH Clinical Unit for Research Trials & Outcomes in Skin,Massachusetts,Boston,02114,,
NCT04466527,"MGH Clinical Unit for Research Trials & Outcomes in Skin, Boston, Massachusetts 02114",MGH Clinical Unit for Research Trials & Outcomes in Skin,Massachusetts,Boston,02114,,
NCT05329493,"MGH Clinical Unit for Research Trials & Outcomes in Skin, Boston, Massachusetts 02114",MGH Clinical Unit for Research Trials & Outcomes in Skin,Massachusetts,Boston,02114,,
NCT03415685,"Metro Dermatology, Elmhurst, New York 11373",Metro Dermatology,New York,Elmhurst,11373,,
NCT02029716,"Medpace Clinical Pharmacology Unit, Cincinnati, Ohio 45212",Medpace Clinical Pharmacology Unit,Ohio,Cincinnati,45212,,
NCT05328388,"Media Lab Science, Los Angeles, California 91604",Media Lab Science,California,Los Angeles,91604,,
NCT02528552,"MedaPhase, Inc., Newnan, Georgia 30263","MedaPhase, Inc.",Georgia,Newnan,30263,,
NCT05097157,"McDaniel Institute of Anti-Aging Research, Virginia Beach, Virginia 23462","McDaniel Institute of Anti-Aging Research",Virginia,Virginia Beach,23462,,
NCT01787461,"McDaniel Institute of Anti-Aging Research, Virginia Beach, Virginia 23462",McDaniel Institute of Anti-Aging Research,Virginia,Virginia Beach,23462,,
NCT03594721,"McDaniel Institute of Anti Aging Research, Virginia Beach, Virginia 23462",McDaniel Institute of Anti Aging Research,Virginia,Virginia Beach,23462,,
NCT04829227,"McDaniel Institute of Aging Research, Virginia Beach, Virginia 23462",McDaniel Institute of Aging Research,Virginia,Virginia Beach,23462,,
NCT04523961,"Mayo Clinic in Arizona, Scottsdale, Arizona 85259",Mayo Clinic in Arizona,Arizona,Scottsdale,85259,,
NCT04103164,"Massachusetts General Hospital, Boston, Massachusetts 02114",Massachusetts General Hospital,Massachusetts,Boston,02114,,
NCT02458976,"Massachusetts General Hospital, Boston, Massachusetts 02114",Massachusetts General Hospital,Massachusetts,Boston,02114,,
NCT03380845,"Massachusetts General Hospital, Boston, Massachusetts 02114",Massachusetts General Hospital,Massachusetts,Boston,02114,,
NCT01686841,"Massachusetts General Hospital, Boston, Massachusetts 02114",Massachusetts General Hospital,Massachusetts,Boston,02114,,
NCT01662713,"Massachusetts General Hospital, Boston, Massachusetts 02114",Massachusetts General Hospital,Massachusetts,Boston,02114,,
NCT03311191,"Massachusetts General Hospital, Boston, Massachusetts 02114",Massachusetts General Hospital,Massachusetts,Boston,02114,,
NCT03901417,"Massachusetts General Hospital, Boston, Massachusetts 02114",Massachusetts General Hospital,Massachusetts,Boston,02114,,
NCT03775031,"Massachusetts General Hospital Clinical Unit for Research Trials and Outcomes in Skin, Boston, Massachusetts 02114",Massachusetts General Hospital Clinical Unit for Research Trials and Outcomes in Skin,Massachusetts,Boston,02114,,
NCT04178161,"Massachusetts General Hospital - Wellman Center for Photomedicine, Boston, Massachusetts 02114",Massachusetts General Hospital - Wellman Center for Photomedicine,Massachusetts,Boston,02114,,
NCT03115944,"Maryland Plastic Surgery, Glen Burnie, Maryland 21061",Maryland Plastic Surgery,Maryland,Glen Burnie,21061,,
NCT02465775,"Maryland Laser, Skin, & Vein Institute, LLC, Hunt Valley, Maryland 21030","Maryland Laser, Skin, & Vein Institute, LLC",Maryland,Hunt Valley,21030,,
NCT02488083,"Maryland Laser, Skin, & Vein Institute, Baltimore, Maryland 21030","Maryland Laser, Skin, & Vein Institute",Maryland,Baltimore,21030,,
NCT02217228,"Maryland Laser, Skin & Vein Institute, Hunt Valley, Maryland 21030","Maryland Laser, Skin & Vein Institute",Maryland,Hunt Valley,21030,,
NCT05171894,"Maryland Dermatology, Laser, Skin & Vein Institute, Hunt Valley, Maryland 21030","Maryland Dermatology, Laser, Skin & Vein Institute",Maryland,Hunt Valley,21030,,
NCT05097157,"Maryland Dermatology Laser, Skin, & Vein Institute, LLC., Hunt Valley, Maryland 21030","Maryland Dermatology Laser, Skin, & Vein Institute, LLC.",Maryland,Hunt Valley,21030,,
NCT03361176,"Maryland Dermatology Laser, Skin and Vein Institute, Hunt Valley, Maryland 21030","Maryland Dermatology Laser, Skin and Vein Institute",Maryland,Hunt Valley,21030,,
NCT03409952,"Maryland Dermatology Laser, Skin & Vein Institute, Hunt Valley, Maryland 21030","Maryland Dermatology Laser, Skin & Vein Institute",Maryland,Hunt Valley,21030,,
NCT02793739,"Marmur Medical, New York, New York 10128","Marmur Medical",New York,New York,10128,,
NCT05590585,"Markowitz Medical, New York, New York 10128",Markowitz Medical,New York,New York,10128,,
NCT06477172,"Marina Plastic Surgery, Marina del Rey, California 90292",Marina Plastic Surgery,California,Marina del Rey,90292,,
NCT04510727,"Maria V Muniz, Miami, Florida 33125",Maria V Muniz,Florida,Miami,33125,,
NCT06477172,"Marcus Medical, Redondo Beach, California 90277",Marcus Medical,California,Redondo Beach,90277,,
NCT06999408,"Marc Avram MD, New York, New York 10021",Marc Avram MD,New York,New York,10021,,
NCT05487547,"Manhattan Face and Eye clinic, New York, New York 10019","Manhattan Face and Eye clinic",New York,New York,10019,,
NCT02700932,"Main Line Center for Laser Surgery, Ardmore, Pennsylvania 19003",Main Line Center for Laser Surgery,Pennsylvania,Ardmore,19003,,
NCT02146807,"Main Line Center for Laser Surgery, Ardmore, Pennsylvania 19003",Main Line Center for Laser Surgery,Pennsylvania,Ardmore,19003,,
NCT01362192,"Main Line Center for Laser Surgery, Ardmore, Pennsylvania 19003","Main Line Center for Laser Surgery",Pennsylvania,Ardmore,19003,,
NCT00933543,"Madison Skin & Research, Inc, Madison, Wisconsin 53719","Madison Skin & Research, Inc",Wisconsin,Madison,53719,,
NCT03078647,"Macrene Alexiades, New York, New York 10028",Macrene Alexiades,New York,New York,10028,,
NCT06477172,"Luxurgery, New York, New York 10021",Luxurgery,New York,New York,10021,,
NCT03224715,"Loyola Dermatology, La Grange Park, Illinois 60526",Loyola Dermatology,Illinois,La Grange Park,60526,,
NCT06351358,"Lorenc Aesthetic Plastic Surgery Center, New York, New York 10028","Lorenc Aesthetic Plastic Surgery Center",New York,New York,10028,,
NCT00702507,"Lewis Purnell, MD, San Antonio, Texas 78229","Lewis Purnell, MD",Texas,San Antonio,78229,,
NCT06477172,"Lewis Dermatology and Associates, New York, New York 10021",Lewis Dermatology and Associates,New York,New York,10021,,
NCT04910945,"Le's Aesthetics, San Jose, California 95112","Le's Aesthetics",California,San Jose,95112,,
NCT00702507,"Lawrence Schachner, MD, Miami, Florida 33136","Lawrence Schachner, MD",Florida,Miami,33136,,
NCT02748928,"Laser Skin Surgery Center of Northern California, Sacramento, California 95816",Laser Skin Surgery Center of Northern California,California,Sacramento,95816,,
NCT02912507,"Laser Skin Solutions Jacksonville, Jacksonville Beach, Florida 32250",Laser Skin Solutions Jacksonville,Florida,Jacksonville Beach,32250,,
NCT03793348,"Laser and Skin Surgery of New York, New York, New York 10016",Laser and Skin Surgery of New York,New York,New York,10016,,
NCT02711618,"Laser and Skin Surgery Center, New York, New York 10016",Laser and Skin Surgery Center,New York,New York,10016,,
NCT03793348,"Laser and Skin Surgery Center of Northern California, Sacramento, California 95816",Laser and Skin Surgery Center of Northern California,California,Sacramento,95816,,
NCT03573271,"Laser and Skin Surgery Center of Northern California, Sacramento, California 95816",Laser and Skin Surgery Center of Northern California,California,Sacramento,95816,,
NCT03583918,"Laser and Skin Surgery Center of Northern California, Sacramento, California 95816","Laser and Skin Surgery Center of Northern California",California,Sacramento,95816,,
NCT04695691,"Laser and Skin Surgery Center of Northern CA, Sacramento, California 95816",Laser and Skin Surgery Center of Northern CA,California,Sacramento,95816,,
NCT03415685,"Laser and Skin Surgery Center of New York, New York, New York 10016",Laser and Skin Surgery Center of New York,New York,New York,10016,,
NCT03573271,"Laser and Skin Surgery Center of New York, New York, New York 10016",Laser and Skin Surgery Center of New York,New York,New York,10016,,
NCT03583918,"Laser and Skin Surgery Center of New York, New York, New York 10016",Laser and Skin Surgery Center of New York,New York,New York,10016,,
NCT03456674,"Laser and Skin Surgery Center of New York, New York, New York 10016",Laser and Skin Surgery Center of New York,New York,New York,10016,,
NCT02468453,"Laser and Skin Surgery Center of New York, New York, New York 10016",Laser and Skin Surgery Center of New York,New York,New York,10016,,
NCT03534609,"Laser and Skin Surgery Center of New York, New York, New York 10016",Laser and Skin Surgery Center of New York,New York,New York,10016,,
NCT02003833,"Laser and Skin Surgery Center of Indiana, Carmel, Indiana 46032",Laser and Skin Surgery Center of Indiana,Indiana,Carmel,46032,,
NCT02146820,"Laser and Cosmetic Dermatology, San Francisco, California 94115",Laser and Cosmetic Dermatology,California,San Francisco,94115,,
NCT02999763,"Laser & Skin Surgery Medical Group, Inc, Sacramento, California 95816","Laser & Skin Surgery Medical Group, Inc",California,Sacramento,95816,,
NCT01950065,"Laser & Skin Surgery Center of NY, New York, New York 10016",Laser & Skin Surgery Center of NY,New York,New York,10016,,
NCT03228641,"Laser & Skin Surgery Center of NY, New York, New York 10016","Laser & Skin Surgery Center of NY",New York,New York,10016,,
NCT04146584,"Laser & Skin Surgery Center of Northern California, Sacramento, California 95816",Laser & Skin Surgery Center of Northern California,California,Sacramento,95816,,
NCT02217228,"Laser & Skin Surgery Center of Northern California, Sacramento, California 95816",Laser & Skin Surgery Center of Northern California,California,Sacramento,95816,,
NCT04146584,"Laser & Skin Surgery Center of New York, New York, New York 10016",Laser & Skin Surgery Center of New York,New York,New York,10016,,
NCT03631368,"Laser & Skin Surgery Center of New York, New York, New York 10016",Laser & Skin Surgery Center of New York,New York,New York,10016,,
NCT01813786,"Laser & Skin Surgery Center of New York, New York, New York 10016",Laser & Skin Surgery Center of New York,New York,New York,10016,,
NCT01745627,"Laser & Skin Surgery Center of New York, New York, New York 10016","Laser & Skin Surgery Center of New York",New York,New York,10016,,
NCT02898350,"Laser & Skin Surgery Center of New York, New York, New York 10016",Laser & Skin Surgery Center of New York,New York,New York,10016,,
NCT02999763,"Laser & Skin Surgery Center of New York, New York, New York 10016","Laser & Skin Surgery Center of New York",New York,New York,10016,,
NCT03228641,"Laser & Skin Center of Northern CA, Sacramento, California 95816",Laser & Skin Center of Northern CA,California,Sacramento,95816,,
NCT04695691,"Kwan Dermatology, San Francisco, California 94108",Kwan Dermatology,California,San Francisco,94108,,
NCT02032771,"Knight Dermatology Institute, Orlando, Florida 32801",Knight Dermatology Institute,Florida,Orlando,32801,,
NCT02180282,"Knight Dermatology Institute, Orlando, Florida 32801",Knight Dermatology Institute,Florida,Orlando,32801,,
NCT05514782,"KGL Skin Study Center, West Chester, Pennsylvania 19073","KGL Skin Study Center",Pennsylvania,West Chester,19073,,
NCT04882631,"KGL Skin Study Center, Newtown Square, Pennsylvania 19073",KGL Skin Study Center,Pennsylvania,Newtown Square,19073,,
NCT06852742,"KGL Skin Study Center, LLC, West Chester, Pennsylvania 19073","KGL Skin Study Center, LLC",Pennsylvania,West Chester,19073,,
NCT05589038,"KGL Skin Study Center, LLC, Newtown Square, Pennsylvania 19073","KGL Skin Study Center, LLC",Pennsylvania,Newtown Square,19073,,
NCT01113606,"Kentucky Aesthetic and Plastic Surgery Institute, Louisville, Kentucky 40202",Kentucky Aesthetic and Plastic Surgery Institute,Kentucky,Louisville,40202,,
NCT01026441,"Kavali Plastic Surgery and Skin Renewal Center, Atlanta, Georgia 30342",Kavali Plastic Surgery and Skin Renewal Center,Georgia,Atlanta,30342,,
NCT03639883,"Kaufman and Davis Plastic Surgery, Folsom, California 95630",Kaufman and Davis Plastic Surgery,California,Folsom,95630,,
NCT07095114,"Karmanos Cancer Institute, Detroit, Michigan 48201","Karmanos Cancer Institute",Michigan,Detroit,48201,,
NCT06604832,"K. Kay Durairaj, MD, A Medical Corp., Pasadena, California 91105","K. Kay Durairaj, MD, A Medical Corp.",California,Pasadena,91105,,
NCT05089851,"Juvly Aesthetics, Columbus, Ohio 43215",Juvly Aesthetics,Ohio,Columbus,43215,,
NCT04738734,"Juva Skin & Laser Center, New York, New York 10022",Juva Skin & Laser Center,New York,New York,10022,,
NCT00981461,"Jose Mendez, DO, Miami, Florida 33144","Jose Mendez, DO",Florida,Miami,33144,,
NCT07078461,"Johns Hopkins University, Baltimore, Maryland 21287",Johns Hopkins University,Maryland,Baltimore,21287,,
NCT02748928,"Jewell Plastic Surgery, Eugene, Oregon 97401",Jewell Plastic Surgery,Oregon,Eugene,97401,,
NCT02600104,"Jerome M. Garden, Chicago, Illinois 60611","Jerome M. Garden",Illinois,Chicago,60611,,
NCT01437163,"Jeffrey A. Sklar, MD, Woodbury, New York 11797","Jeffrey A. Sklar, MD",New York,Woodbury,11797,,
NCT00922623,"Jeanine B Downie, Montclair, New Jersey 07042",Jeanine B Downie,New Jersey,Montclair,07042,,
NCT00981461,"Janet Hickman, MD, Lynchburg, Virginia 24501","Janet Hickman, MD",Virginia,Lynchburg,24501,,
NCT02217228,"James Q Del Rosso, DO, LLC, Las Vegas, Nevada 89144","James Q Del Rosso, DO, LLC",Nevada,Las Vegas,89144,,
NCT00027976,"James P. Wilmot Cancer Center at University of Rochester Medical Center, Rochester, New York 14642",James P. Wilmot Cancer Center at University of Rochester Medical Center,New York,Rochester,14642,,
NCT04738734,"Investigate MD, Scottsdale, Arizona 85255",Investigate MD,Arizona,Scottsdale,85255,,
NCT03769779,"International Research Services, Inc., Port Chester, New York 10573","International Research Services, Inc.",New York,Port Chester,10573,,
NCT00941278,"International Dermatology Research, Miami, Florida 33144","International Dermatology Research",Florida,Miami,33144,,
NCT01147172,"International Dermatology Research, Miami, Florida 33144",International Dermatology Research,Florida,Miami,33144,,
NCT02322086,"International Dermatology Research, Miami, Florida 33144","International Dermatology Research",Florida,Miami,33144,,
NCT01247818,"International Dermatology Research, Miami, Florida 33144",International Dermatology Research,Florida,Miami,33144,,
NCT04029545,"International Dermatology Research, Inc, Miami, Florida 33144","International Dermatology Research, Inc",Florida,Miami,33144,,
NCT03818555,"International Clinical Research, Murfreesboro, Tennessee 37130",International Clinical Research,Tennessee,Murfreesboro,37130,,
NCT05882084,"Integrative Skin Science and Research, Sacramento, California 95819",Integrative Skin Science and Research,California,Sacramento,95819,,
NCT04586816,"Integrative Skin Science and Research, Sacramento, California 95815",Integrative Skin Science and Research,California,Sacramento,95815,,
NCT05332743,"Integrative Skin Science and Research, Sacramento, California 95815","Integrative Skin Science and Research",California,Sacramento,95815,,
NCT06376409,"Integrative Skin Science and Research, Sacramento, California 95815",Integrative Skin Science and Research,California,Sacramento,95815,,
NCT04872946,"Integrative Skin Science and Research, Sacramento, California 95815",Integrative Skin Science and Research,California,Sacramento,95815,,
NCT04841694,"Integrative Skin Science and Research, Sacramento, California 95815",Integrative Skin Science and Research,California,Sacramento,95815,,
NCT04345094,"Integrative skin Science and Research, Sacramento, California 95815",Integrative skin Science and Research,California,Sacramento,95815,,
NCT06144541,"Integrative Skin Science & Research, Sacramento, California 95815","Integrative Skin Science & Research",California,Sacramento,95815,,
NCT06571721,"Integrative Research Institute, Sacramento, California 95819",Integrative Research Institute,California,Sacramento,95819,,
NCT03286283,"Institute for Integrated Aesthetics, Sarasota, Florida 34237",Institute for Integrated Aesthetics,Florida,Sarasota,34237,,
NCT05089851,"Infinity Skin Care, Coralville, Iowa 52241",Infinity Skin Care,Iowa,Coralville,52241,,
NCT02090894,"Indiana University Department of Dermatology, Indianapolis, Indiana 46202",Indiana University Department of Dermatology,Indiana,Indianapolis,46202,,
NCT00891774,"Image Dermatology, Montclair, New Jersey 07042",Image Dermatology,New Jersey,Montclair,07042,,
NCT06477172,"ICON Anti-aging and Aesthetics, Birmingham, Michigan 48009",ICON Anti-aging and Aesthetics,Michigan,Birmingham,48009,,
NCT03123016,"Icahn School of Medicine at Mount Sinai, New York, New York 10029",Icahn School of Medicine at Mount Sinai,New York,New York,10029,,
NCT02166138,"Hospital for Special Surgery, New York, New York 10021","Hospital for Special Surgery",New York,New York,10021,,
NCT02431494,"Hollywood Dermatology, Hollywood, Florida 33021",Hollywood Dermatology,Florida,Hollywood,33021,,
NCT04185909,"Holcomb-Kreithen Plastic Surgery and MedSpa, PLLC, Sarasota, Florida 34237","Holcomb-Kreithen Plastic Surgery and MedSpa, PLLC",Florida,Sarasota,34237,,
NCT06477172,"Hive Aesthetic LLC, Chicago, Illinois 60657",Hive Aesthetic LLC,Illinois,Chicago,60657,,
NCT02067260,"Hilltop Research, St. Petersburg, Florida 33710",Hilltop Research,Florida,St. Petersburg,33710,,
NCT01119651,"HillTop Research Corporation, St. Petersburg, Florida 33710",HillTop Research Corporation,Florida,St. Petersburg,33710,,
NCT01114841,"HillTop Research Corporation, Scottsdale, Arizona 85251","HillTop Research Corporation",Arizona,Scottsdale,85251,,
NCT01112787,"HillTop Research Corporation, Scottsdale, Arizona 85251",HillTop Research Corporation,Arizona,Scottsdale,85251,,
NCT01115322,"HillTop Research Corporation, Scottsdale, Arizona 85251",HillTop Research Corporation,Arizona,Scottsdale,85251,,
NCT00605956,"Hill Top Research, St. Petersburg, Florida 33710",Hill Top Research,Florida,St. Petersburg,33710,,
NCT01770860,"Hill Top Research, St. Petersburg, Florida 33710","Hill Top Research",Florida,St. Petersburg,33710,,
NCT00591331,"Hill Top Research, St. Petersburg, Florida 33710",Hill Top Research,Florida,St. Petersburg,33710,,
NCT00025051,"Herbert Irving Comprehensive Cancer Center at Columbia University, New York, New York 10032",Herbert Irving Comprehensive Cancer Center at Columbia University,New York,New York,10032,,
NCT01430195,"Henry Ford Medical Center, Detroit, Michigan 48202",Henry Ford Medical Center,Michigan,Detroit,48202,,
NCT05964907,"Henry Ford Medical Center, Detroit, Michigan 48202",Henry Ford Medical Center,Michigan,Detroit,48202,,
NCT02904798,"Henry Ford Hospital, Detroit, Michigan 48202",Henry Ford Hospital,Michigan,Detroit,48202,,
NCT03065582,"Henry Ford Hospital, Detroit, Michigan 48202",Henry Ford Hospital,Michigan,Detroit,48202,,
NCT00641420,"Henry Ford Health System, Detroit, Michigan 48202",Henry Ford Health System,Michigan,Detroit,48202,,
NCT03858543,"Henry Ford Health System, Detroit, Michigan 48202","Henry Ford Health System",Michigan,Detroit,48202,,
NCT05590585,"Heights Dermatology & Aesthetic Center - Heights Location, Houston, Texas 77008",Heights Dermatology & Aesthetic Center - Heights Location,Texas,Houston,77008,,
NCT01368965,"Harris Aesthetics, LLC, Chevy Chase, Maryland 20815","Harris Aesthetics, LLC",Maryland,Chevy Chase,20815,,
NCT06477172,"Haideh Hirmand MD, Aesthetic Plastic Surgery, New York, New York 10028","Haideh Hirmand MD, Aesthetic Plastic Surgery",New York,New York,10028,,
NCT03565341,"Hackensack University Medical Center - Skin Laser & Surgery Specialists Of NY & NJ, Hackensack, New Jersey 07601",Hackensack University Medical Center - Skin Laser & Surgery Specialists Of NY & NJ,New Jersey,Hackensack,07601,,
NCT02217228,"Gwinnett Dermatology, PC, Snellville, Georgia 30078","Gwinnett Dermatology, PC",Georgia,Snellville,30078,,
NCT03945383,"Great Lakes Clinical Trials, Chicago, Illinois 60640","Great Lakes Clinical Trials",Illinois,Chicago,60640,,
NCT02465775,"Gold Skincare, Nashville, Tennessee 37215",Gold Skincare,Tennessee,Nashville,37215,,
NCT03078647,"Girish Munavalli, Charlotte, North Carolina 28270",Girish Munavalli,North Carolina,Charlotte,28270,,
NCT06157567,"Gerrish MedEsthetics, Vienna, Virginia 22180",Gerrish MedEsthetics,Virginia,Vienna,22180,,
NCT02621593,"Gaster Eye Center, Beverly Hills, California 90211",Gaster Eye Center,California,Beverly Hills,90211,,
NCT00865878,"Fox Chase Cancer Center, Philadelphia, Pennsylvania 19111",Fox Chase Cancer Center,Pennsylvania,Philadelphia,19111,,
NCT06538415,"Food Science and Human Nutrition, Gainesville, Florida 32608","Food Science and Human Nutrition",Florida,Gainesville,32608,,
NCT04614753,"Food Science and Human Nutrition Department at University of Florida, Gainesville, Florida 32611",Food Science and Human Nutrition Department at University of Florida,Florida,Gainesville,32611,,
NCT04861623,"Food Science and Human Nutrition Department at University of Florida, Gainesville, Florida 32611","Food Science and Human Nutrition Department at University of Florida",Florida,Gainesville,32611,,
NCT05372419,"First OC Dermatology, Fountain Valley, California 92708",First OC Dermatology,California,Fountain Valley,92708,,
NCT05202834,"FA Corporation, Lincoln, Rhode Island 02865",FA Corporation,Rhode Island,Lincoln,02865,,
NCT06349356,"Eye Centers of Racine & Kenosha, Kenosha, Wisconsin 53142",Eye Centers of Racine & Kenosha,Wisconsin,Kenosha,53142,,
NCT05254925,"Eurofins | CRL, Inc., Piscataway, New Jersey 08854","Eurofins | CRL, Inc.",New Jersey,Piscataway,08854,,
NCT05537350,"Eurofins | CRL, Inc., Piscataway, New Jersey 08854","Eurofins | CRL, Inc.",New Jersey,Piscataway,08854,,
NCT05254912,"Eurofins | CRL, Inc., Piscataway, New Jersey 08854","Eurofins | CRL, Inc.",New Jersey,Piscataway,08854,,
NCT07054710,"Eurofins CRL Cosmetics, Inc, Piscataway, New Jersey 08854","Eurofins CRL Cosmetics, Inc",New Jersey,Piscataway,08854,,
NCT01771679,"eStudy Site, La Mesa, California 91942",eStudy Site,California,La Mesa,91942,,
NCT02600104,"Eric F. Bernstein, Ardmore, Pennsylvania 19003",Eric F. Bernstein,Pennsylvania,Ardmore,19003,,
NCT05372419,"Encore Medical Research of Boynton Beach, Boynton Beach, Florida 33436",Encore Medical Research of Boynton Beach,Florida,Boynton Beach,33436,,
NCT00594425,"DuPage Medical Group, Naperville, Illinois 60563",DuPage Medical Group,Illinois,Naperville,60563,,
NCT02754479,"DuPage Medical Group, Naperville, Illinois 60563","DuPage Medical Group",Illinois,Naperville,60563,,
NCT02763072,"DuPage Medical Group, Naperville, Illinois 60563","DuPage Medical Group",Illinois,Naperville,60563,,
NCT02748928,"DuPage Medical Group, Naperville, Illinois 60563",DuPage Medical Group,Illinois,Naperville,60563,,
NCT00673933,"DuPage Medical Group, Naperville, Illinois 60563",DuPage Medical Group,Illinois,Naperville,60563,,
NCT02755467,"DuPage Medical Group, Naperville, Illinois 60563",DuPage Medical Group,Illinois,Naperville,60563,,
NCT00891774,"DuPage Medical Group Clinical Research, Naperville, Illinois 60563","DuPage Medical Group Clinical Research",Illinois,Naperville,60563,,
NCT05590585,"Duke University Medical Center, Durham, North Carolina 27710",Duke University Medical Center,North Carolina,Durham,27710,,
NCT02592993,"Dr. Jerome M. Garden, Chicago, Illinois 60611",Dr. Jerome M. Garden,Illinois,Chicago,60611,,
NCT02592993,"Dr. Eric F. Bernstein, Ardmore, Pennsylvania 19003",Dr. Eric F. Bernstein,Pennsylvania,Ardmore,19003,,
NCT06477172,"Dr. Christie, West Hollywood, California 90069",Dr. Christie,California,West Hollywood,90069,,
NCT03115944,"Dr. Brian S. Biesman, Nashville, Tennessee 37203",Dr. Brian S. Biesman,Tennessee,Nashville,37203,,
NCT04616898,"Dr. Brian Kinney Plastic Surgeon, Beverly Hills, California 90212","Dr. Brian Kinney Plastic Surgeon",California,Beverly Hills,90212,,
NCT03573271,"Dr A Jay Burns Cosmetic Surgery, Dallas, Texas 75231","Dr A Jay Burns Cosmetic Surgery",Texas,Dallas,75231,,
NCT03583918,"Dr A Jay Burns Cosmetic Surgery, Dallas, Texas 75231",Dr A Jay Burns Cosmetic Surgery,Texas,Dallas,75231,,
NCT03228641,"Dr A Jay Burns Cosmetic Surgery, Dallas, Texas 75231",Dr A Jay Burns Cosmetic Surgery,Texas,Dallas,75231,,
NCT05356754,"Diablo Clinical Research, Walnut Creek, California 94398",Diablo Clinical Research,California,Walnut Creek,94398,,
NCT00891774,"Desert Dermatology Medical Associates, Rancho Mirage, California 92270",Desert Dermatology Medical Associates,California,Rancho Mirage,92270,,
NCT03402893,"DermResearch, PLLC, Louisville, Kentucky 40217","DermResearch, PLLC",Kentucky,Louisville,40217,,
NCT01038869,"DermResearch, PLLC, Louisville, Kentucky 40217","DermResearch, PLLC",Kentucky,Louisville,40217,,
NCT01160848,"DermResearch, Inc., Austin, Texas 78759","DermResearch, Inc.",Texas,Austin,78759,,
NCT02932267,"Dermresearch, Austin, Texas 78759",Dermresearch,Texas,Austin,78759,,
NCT02322086,"DermResearch Inc., Austin, Texas 78759",DermResearch Inc.,Texas,Austin,78759,,
NCT01347879,"DermResearch Inc, Austin, Texas 78759",DermResearch Inc,Texas,Austin,78759,,
NCT02260180,"DermReseach, Inc., Austin, Texas 78759","DermReseach, Inc.",Texas,Austin,78759,,
NCT01940445,"Dermatology, Laser, and Vein Specialists of the Carolinas, PLLC, Charlotte, North Carolina 28207","Dermatology, Laser, and Vein Specialists of the Carolinas, PLLC",North Carolina,Charlotte,28207,,
NCT01504061,"Dermatology, Laser, and Vein Specialists of the Carolinas, PLLC, Charlotte, North Carolina 28207","Dermatology, Laser, and Vein Specialists of the Carolinas, PLLC",North Carolina,Charlotte,28207,,
NCT04296201,"Dermatology, Laser, and Vein Specialists of the Carolinas, PLLC, Charlotte, North Carolina 28207","Dermatology, Laser, and Vein Specialists of the Carolinas, PLLC",North Carolina,Charlotte,28207,,
NCT03409952,"Dermatology, Laser, and Vein Specialists of the Carolinas, Charlotte, North Carolina 28207","Dermatology, Laser, and Vein Specialists of the Carolinas",North Carolina,Charlotte,28207,,
NCT03415685,"Dermatology, Laser, and Vein Specialists of the Carolinas, Charlotte, North Carolina 28207","Dermatology, Laser, and Vein Specialists of the Carolinas",North Carolina,Charlotte,28207,,
NCT06415435,"Dermatology, Laser & Vein Specialists of the Carolinas, PLLC, Charlotte, North Carolina 28207","Dermatology, Laser & Vein Specialists of the Carolinas, PLLC",North Carolina,Charlotte,28207,,
NCT05091788,"Dermatology, Laser & Vein Specialists of the Carolinas, PLLC, Charlotte, North Carolina 28207","Dermatology, Laser & Vein Specialists of the Carolinas, PLLC",North Carolina,Charlotte,28207,,
NCT01810484,"Dermatology, Laser & Vein Specialists of the Carolinas, Charlotte, North Carolina 98207","Dermatology, Laser & Vein Specialists of the Carolinas",North Carolina,Charlotte,98207,,
NCT04153188,"Dermatology, Laser & Vein Specialists of the Carolinas, Charlotte, North Carolina 28207","Dermatology, Laser & Vein Specialists of the Carolinas",North Carolina,Charlotte,28207,,
NCT02622594,"Dermatology, Laser & Vein Specialists of the Carolinas, Charlotte, North Carolina 28207","Dermatology, Laser & Vein Specialists of the Carolinas",North Carolina,Charlotte,28207,,
NCT04146584,"Dermatology, Laser & Vein Specialists of the Carolinas, Charlotte, North Carolina 28207","Dermatology, Laser & Vein Specialists of the Carolinas",North Carolina,Charlotte,28207,,
NCT02217228,"Dermatology, Laser & Vein Specialists of the Carolinas, Charlotte, North Carolina 28207","Dermatology, Laser & Vein Specialists of the Carolinas",North Carolina,Charlotte,28207,,
NCT03383705,"Dermatology, Laser & Vein Specialists of the Carolinas, Charlotte, North Carolina 28207","Dermatology, Laser & Vein Specialists of the Carolinas",North Carolina,Charlotte,28207,,
NCT04738734,"Dermatology, Laser & Vein Specialists of the Carolinas, Charlotte, North Carolina 28207","Dermatology, Laser & Vein Specialists of the Carolinas",North Carolina,Charlotte,28207,,
NCT01368965,"Dermatology, Cosmetic & Laser Surgery, Rockville, Maryland 20852","Dermatology, Cosmetic & Laser Surgery",Maryland,Rockville,20852,,
NCT00594425,"Dermatology Treatment & Research, Dallas, Texas 75230",Dermatology Treatment & Research,Texas,Dallas,75230,,
NCT01247818,"Dermatology Specialists, Inc., Oceanside, California 92056","Dermatology Specialists, Inc.",California,Oceanside,92056,,
NCT01347879,"Dermatology Specialists Inc, Oceanside, California 92056","Dermatology Specialists Inc",California,Oceanside,92056,,
NCT01147172,"Dermatology Research Institute, LLC, Coral Gables, Florida 33146","Dermatology Research Institute, LLC",Florida,Coral Gables,33146,,
NCT00594425,"Dermatology Research Center, Inc., Salt Lake City, Utah 84124","Dermatology Research Center, Inc.",Utah,Salt Lake City,84124,,
NCT05372419,"Dermatology Research Associates, Los Angeles, California 90045",Dermatology Research Associates,California,Los Angeles,90045,,
NCT06469398,"Dermatology of Boca, Boca Raton, Florida 33431",Dermatology of Boca,Florida,Boca Raton,33431,,
NCT01347879,"Dermatology Institute, DuPage Medical Group, Naperville, Illinois 60563","Dermatology Institute, DuPage Medical Group",Illinois,Naperville,60563,,
NCT00933543,"Dermatology Institute of DuPage Medical Group, Naperville, Illinois 60563",Dermatology Institute of DuPage Medical Group,Illinois,Naperville,60563,,
NCT03818555,"Dermatology Institute of Boston, Boston, Massachusetts 02116",Dermatology Institute of Boston,Massachusetts,Boston,02116,,
NCT01995604,"Dermatology Cosmetic Laser Medical Associates of LaJolla, Inc., San Diego, California 92121","Dermatology Cosmetic Laser Medical Associates of LaJolla, Inc.",California,San Diego,92121,,
NCT02095756,"Dermatology Cosmetic Laser Medical Associates of La Jolla, Inc., San Diego, California 92121","Dermatology Cosmetic Laser Medical Associates of La Jolla, Inc.",California,San Diego,92121,,
NCT03241563,"Dermatology Cosmetic Laser Medical Associates of La Jolla, Inc., San Diego, California 92121","Dermatology Cosmetic Laser Medical Associates of La Jolla, Inc.",California,San Diego,92121,,
NCT05171894,"Dermatology Cosmetic Associates of La Jolla, Inc. d/b/a West Dermatology Research Center, San Diego, California 92121","Dermatology Cosmetic Associates of La Jolla, Inc. d/b/a West Dermatology Research Center",California,San Diego,92121,,
NCT05094700,"Dermatology Consulting Services, PLLC, High Point, North Carolina 27262","Dermatology Consulting Services, PLLC",North Carolina,High Point,27262,,
NCT06415279,"Dermatology Consulting Services, PLLC, High Point, North Carolina 27262","Dermatology Consulting Services, PLLC",North Carolina,High Point,27262,,
NCT05226143,"Dermatology Consulting Services, PLLC, High Point, North Carolina 27262","Dermatology Consulting Services, PLLC",North Carolina,High Point,27262,,
NCT06415292,"Dermatology Consulting Services, PLLC, High Point, North Carolina 27262","Dermatology Consulting Services, PLLC",North Carolina,High Point,27262,,
NCT04740892,"Dermatology Consulting Services, PLLC, High Point, North Carolina 27262","Dermatology Consulting Services, PLLC",North Carolina,High Point,27262,,
NCT06425900,"Dermatology Consulting Services, PLLC, High Point, North Carolina 27262","Dermatology Consulting Services, PLLC",North Carolina,High Point,27262,,
NCT06362941,"Dermatology Consulting Services, High Point, North Carolina 27262","Dermatology Consulting Services",North Carolina,High Point,27262,,
NCT06097871,"Dermatology Consulting Services, High Point, North Carolina 27262","Dermatology Consulting Services",North Carolina,High Point,27262,,
NCT06357221,"Dermatology Consulting Services, High Point, North Carolina 27262",Dermatology Consulting Services,North Carolina,High Point,27262,,
NCT00991198,"Dermatology Consultants Inc, High Point, North Carolina 27262",Dermatology Consultants Inc,North Carolina,High Point,27262,,
NCT05372419,"Dermatology Clinical Research Center of San Antonio, San Antonio, Texas 78229",Dermatology Clinical Research Center of San Antonio,Texas,San Antonio,78229,,
NCT00594425,"Dermatology Associates of Rochester, Rochester, New York 14623",Dermatology Associates of Rochester,New York,Rochester,14623,,
NCT00933543,"Dermatology Associates of Rochester, Rochester, New York 14623","Dermatology Associates of Rochester",New York,Rochester,14623,,
NCT04640207,"Dermatology Associates of Plymouth Meeting, P.C., Plymouth Meeting, Pennsylvania 19762","Dermatology Associates of Plymouth Meeting, P.C.",Pennsylvania,Plymouth Meeting,19762,,
NCT05590585,"Dermatology and Skin Cancer Specialists, LLC dba US Dermatology Partners, Rockville, Maryland 20850","Dermatology and Skin Cancer Specialists, LLC dba US Dermatology Partners",Maryland,Rockville,20850,,
NCT04153188,"Dermatology & Laser Surgery Center, Houston, Texas 77030","Dermatology & Laser Surgery Center",Texas,Houston,77030,,
NCT04146584,"Dermatology & Laser Surgery Center, Houston, Texas 77030",Dermatology & Laser Surgery Center,Texas,Houston,77030,,
NCT02217228,"Dermatology & Laser Center of Charleston, Charleston, South Carolina 29414","Dermatology & Laser Center of Charleston",South Carolina,Charleston,29414,,
NCT04738734,"Dermatology & Laser Center of Charleston, Charleston, South Carolina 29414",Dermatology & Laser Center of Charleston,South Carolina,Charleston,29414,,
NCT05372419,"Dermatology & Laser Center of Charleston, Charleston, South Carolina 29407",Dermatology & Laser Center of Charleston,South Carolina,Charleston,29407,,
NCT01147172,"Derm Research, Inc., Austin, Texas 78759","Derm Research, Inc.",Texas,Austin,78759,,
NCT01359735,"Derm Research PLC, Louisville, Kentucky 40217",Derm Research PLC,Kentucky,Louisville,40217,,
NCT04181476,"Department of Dermatology, Henry Ford Medical Center, 3031 West Grand Boulevard,, Detroit, Michigan 48202","Department of Dermatology, Henry Ford Medical Center, 3031 West Grand Boulevard,",Michigan,Detroit,48202,,
NCT00478751,"Department of Dermatology, Henry Ford Medical Center, 3031 West Grand Boulevard,, Detroit, Michigan 48202","Department of Dermatology, Henry Ford Medical Center, 3031 West Grand Boulevard,",Michigan,Detroit,48202,,
NCT01212172,"Department of Dermatology Clinical Research, Irvine, California 92697",Department of Dermatology Clinical Research,California,Irvine,92697,,
NCT00891774,"Denova Research, Chicago, Illinois 60611",Denova Research,Illinois,Chicago,60611,,
NCT01950065,"DeNova Research, Chicago, Illinois 60611",DeNova Research,Illinois,Chicago,60611,,
NCT06161246,"DeNova Research, Chicago, Illinois 60611",DeNova Research,Illinois,Chicago,60611,,
NCT04910945,"DeNova Research, Chicago, Illinois 60611",DeNova Research,Illinois,Chicago,60611,,
NCT01225354,"DeNova Research, Chicago, Illinois 60611",DeNova Research,Illinois,Chicago,60611,,
NCT00933543,"DeNova Research, Chicago, Illinois 60611",DeNova Research,Illinois,Chicago,60611,,
NCT05091788,"DeNova Research, Chicago, Illinois 60611",DeNova Research,Illinois,Chicago,60611,,
NCT06473974,"Delux Health Centre, LLC,, Miami Lakes, Florida 33014","Delux Health Centre, LLC,",Florida,Miami Lakes,33014,,
NCT02526576,"Delmont Surgery Center, Delmont, Pennsylvania 15601",Delmont Surgery Center,Pennsylvania,Delmont,15601,,
NCT02621593,"Dell Laser Consultants, Austin, Texas 78746","Dell Laser Consultants",Texas,Austin,78746,,
NCT01347879,"Deaconess Clinic Inc, Evansville, Indiana 47713",Deaconess Clinic Inc,Indiana,Evansville,47713,,
NCT01796626,"DCLA, San Diego, California",DCLA,California,San Diego,nan,,
NCT03906253,"Dayton VA Medical Center, Dayton, Ohio 45428",Dayton VA Medical Center,Ohio,Dayton,45428,,
NCT06778434,"Dayton VA Medical Center, Dayton, OH, Dayton, Ohio 45428","Dayton VA Medical Center, Dayton, OH",Ohio,Dayton,45428,,
NCT05372419,"Dawes Fretzin Clinical Research Group, LLC, Indianapolis, Indiana 46250","Dawes Fretzin Clinical Research Group, LLC",Indiana,Indianapolis,46250,,
NCT06477172,"Davis Cosmedic Plastic Surgery, Cherry Hill, New Jersey 08003","Davis Cosmedic Plastic Surgery",New Jersey,Cherry Hill,08003,,
NCT00702507,"David Rodriguez, MD, Coral Gables, Florida 33134","David Rodriguez, MD",Florida,Coral Gables,33134,,
NCT00981461,"David Goldberg, MD, Hackensack, New Jersey","David Goldberg, MD",New Jersey,Hackensack,nan,,
NCT00947219,"David Goldberg, M.D., Hackensack, New Jersey 07601","David Goldberg, M.D.",New Jersey,Hackensack,07601,,
NCT03340532,"Dana Farber Cancer Institute, Boston, Massachusetts 02115",Dana Farber Cancer Institute,Massachusetts,Boston,02115,,
NCT01950065,"Dallas Plastic Surgery Institute, Dallas, Texas 75231","Dallas Plastic Surgery Institute",Texas,Dallas,75231,,
NCT03793348,"Dallas Plastic Surgery Institute, Dallas, Texas 75231",Dallas Plastic Surgery Institute,Texas,Dallas,75231,,
NCT06502470,"Dallas Plastic Surgery Institute, Dallas, Texas 75231",Dallas Plastic Surgery Institute,Texas,Dallas,75231,,
NCT06421207,"Dallas Plastic Surgery Institute, Dallas, Texas 75231",Dallas Plastic Surgery Institute,Texas,Dallas,75231,,
NCT06477172,"Dallas Plastic Surgery Institute, Dallas, Texas 75225",Dallas Plastic Surgery Institute,Texas,Dallas,75225,,
NCT00450775,"Dadeland Dermatology, Coral Gables, Florida 33134","Dadeland Dermatology",Florida,Coral Gables,33134,,
NCT05097157,"Cynosure, Westford, Massachusetts 01886",Cynosure,Massachusetts,Westford,01886,,
NCT05987319,"Cynosure, Inc., Westford, Massachusetts 01886","Cynosure, Inc.",Massachusetts,Westford,01886,,
NCT06023303,"Cynosure, Inc, Westford, Massachusetts 01886","Cynosure, Inc",Massachusetts,Westford,01886,,
NCT01813760,"Cynosure, Inc, Westford, Massachusetts 01886","Cynosure, Inc",Massachusetts,Westford,01886,,
NCT03470012,"cyberDERM, inc., Broomall, Pennsylvania 19008","cyberDERM, inc.",Pennsylvania,Broomall,19008,,
NCT00964366,"cyberDERM, Broomall, Pennsylvania 19008",cyberDERM,Pennsylvania,Broomall,19008,,
NCT01354106,"cyberDERM, Broomall, Pennsylvania 19008",cyberDERM,Pennsylvania,Broomall,19008,,
NCT02935660,"Cutera Research Clinic, Brisbane, California 94005",Cutera Research Clinic,California,Brisbane,94005,,
NCT02910492,"Cutera Research Clinic, Brisbane, California 94005",Cutera Research Clinic,California,Brisbane,94005,,
NCT02635880,"Cutera Research Center, Brisbane, California 94005",Cutera Research Center,California,Brisbane,94005,,
NCT04695691,"Cutera Research Center, Brisbane, California 94005",Cutera Research Center,California,Brisbane,94005,,
NCT03430921,"Cutera Research Center, Brisbane, California 94005",Cutera Research Center,California,Brisbane,94005,,
NCT03285581,"Cutera Research Center, Brisbane, California 94005",Cutera Research Center,California,Brisbane,94005,,
NCT03433417,"Cutera Research Center, Brisbane, California 94005",Cutera Research Center,California,Brisbane,94005,,
NCT03290547,"Cutera Research Center, Brisbane, California 94005",Cutera Research Center,California,Brisbane,94005,,
NCT01885871,"Cutera Research Center, Brisbane, California 94005",Cutera Research Center,California,Brisbane,94005,,
NCT02888626,"Cutera Research Center, Brisbane, California 94005",Cutera Research Center,California,Brisbane,94005,,
NCT03424148,"Cutera Research Center, Brisbane, California 94005",Cutera Research Center,California,Brisbane,94005,,
NCT03424304,"Cutera Research Center, Brisbane, California 94005","Cutera Research Center",California,Brisbane,94005,,
NCT02873104,"Cutera Research Center, Brisbane, California 94005",Cutera Research Center,California,Brisbane,94005,,
NCT03018587,"Cutera Research Center, Brisbane, California 94005",Cutera Research Center,California,Brisbane,94005,,
NCT03284333,"Cutera Research Center, Brisbane, California 94005",Cutera Research Center,California,Brisbane,94005,,
NCT02756806,"Cutera Research Center, Brisbane, California 94005",Cutera Research Center,California,Brisbane,94005,,
NCT05372419,"Cura Clinical Research, Sherman Oaks, California 91403","Cura Clinical Research",California,Sherman Oaks,91403,,
NCT05372419,"Cura Clinical Research, Palmdale, California 93551",Cura Clinical Research,California,Palmdale,93551,,
NCT00473317,"Creighton University, Omaha, Nebraska 68131",Creighton University,Nebraska,Omaha,68131,,
NCT02321644,"Covance-Daytona Beach, Daytona Beach, Florida 32117",Covance-Daytona Beach,Florida,Daytona Beach,32117,,
NCT06333067,"Costal Skin & Eye Institute, La Mesa, California 91942",Costal Skin & Eye Institute,California,La Mesa,91942,,
NCT05359419,"Cosmetic Laser Dermatology/West Dermatology Research Center, San Diego, California 92121","Cosmetic Laser Dermatology/West Dermatology Research Center",California,San Diego,92121,,
NCT04096742,"Cosmetic Laser Dermatology/West Dermatology Research Center, San Diego, California 92121",Cosmetic Laser Dermatology/West Dermatology Research Center,California,San Diego,92121,,
NCT02681224,"Cosmetic Laser Dermatology, San Diego, California 92121",Cosmetic Laser Dermatology,California,San Diego,92121,,
NCT03559972,"Cosmetic Laser Dermatology, San Diego, California 92121","Cosmetic Laser Dermatology",California,San Diego,92121,,
NCT04137263,"Cosmetic Laser Dermatology, San Diego, California 92121",Cosmetic Laser Dermatology,California,San Diego,92121,,
NCT03639883,"Cosmetic Laser Dermatology, San Diego, California 92121","Cosmetic Laser Dermatology",California,San Diego,92121,,
NCT04214873,"Cosmetic Laser Dermatology, A West Dermatology Company, San Diego, California 92121","Cosmetic Laser Dermatology, A West Dermatology Company",California,San Diego,92121,,
NCT01597323,"Cosmetic & Reconstructive Plastic Surgery, Great Neck, New York 11021","Cosmetic & Reconstructive Plastic Surgery",New York,Great Neck,11021,,
NCT04185909,"Contemporary Plastic Surgery, Jacksonville, Florida 32216","Contemporary Plastic Surgery",Florida,Jacksonville,32216,,
NCT04356456,"Consumer product testing (CPT), Fairfield, New Jersey 07004",Consumer product testing (CPT),New Jersey,Fairfield,07004,,
NCT02910505,"Connecticut Skin Institute, Stamford, Connecticut 06905",Connecticut Skin Institute,Connecticut,Stamford,06905,,
NCT02910492,"Connecticut Skin Institute, Stamford, Connecticut 06905",Connecticut Skin Institute,Connecticut,Stamford,06905,,
NCT06157567,"Concierge Medical Arts, Fayetteville, North Carolina 28306",Concierge Medical Arts,North Carolina,Fayetteville,28306,,
NCT05372419,"Complete Dermatology, Sugar Land, Texas 77479","Complete Dermatology",Texas,Sugar Land,77479,,
NCT02465775,"Coleman Center for Cosmetic Dermatologic Surgery, Metairie, Louisiana 70006",Coleman Center for Cosmetic Dermatologic Surgery,Louisiana,Metairie,70006,,
NCT02488083,"Coleman Center for Cosmetic Dermatologic Surgery, Metairie, Louisiana 70006",Coleman Center for Cosmetic Dermatologic Surgery,Louisiana,Metairie,70006,,
NCT02143960,"Coleman Center for Cosmetic Dermatologic Surgery, Metairie, Louisiana 70006","Coleman Center for Cosmetic Dermatologic Surgery",Louisiana,Metairie,70006,,
NCT00836342,"Clinical Unit for Research Trials in Skin - MGH, Boston, Massachusetts 02114",Clinical Unit for Research Trials in Skin - MGH,Massachusetts,Boston,02114,,
NCT01347879,"Clinical Trials of Texas, San Antonio, Texas 78229","Clinical Trials of Texas",Texas,San Antonio,78229,,
NCT05372419,"Clinical Trial Network, Houston, Texas 77074",Clinical Trial Network,Texas,Houston,77074,,
NCT02145364,"Clinical Testing of Beverly Hills, Beverly Hills, California 90210",Clinical Testing of Beverly Hills,California,Beverly Hills,90210,,
NCT05372419,"Clinical Science Institute, Santa Monica, California 90404",Clinical Science Institute,California,Santa Monica,90404,,
NCT01347879,"Clinical Partners LLC, Johnston, Rhode Island 02919",Clinical Partners LLC,Rhode Island,Johnston,02919,,
NCT06616311,"Cleveland Clinic, Cleveland, Ohio 44195","Cleveland Clinic",Ohio,Cleveland,44195,,
NCT01016964,"Cleveland Clinic Foundation - Department of Dermatology, Cleveland, Ohio 44195",Cleveland Clinic Foundation - Department of Dermatology,Ohio,Cleveland,44195,,
NCT02217228,"Clear Dermatology & Aesthetics Center, Scottsdale, Arizona 85255","Clear Dermatology & Aesthetics Center",Arizona,Scottsdale,85255,,
NCT02217228,"Clarkston Skin Research, Clarkston, Michigan 48346",Clarkston Skin Research,Michigan,Clarkston,48346,,
NCT00933543,"Children's Specialists of San Diego / Rady Children's Hospital San Diego, San Diego, California 92123",Children's Specialists of San Diego / Rady Children's Hospital San Diego,California,San Diego,92123,,
NCT00027976,"Chao Family Comprehensive Cancer Center at University of California Irvine Cancer Center, Irvine, California 92697","Chao Family Comprehensive Cancer Center at University of California Irvine Cancer Center",California,Irvine,92697,,
NCT05590585,"Century Research LLC, Miami, Florida 33173",Century Research LLC,Florida,Miami,33173,,
NCT00594425,"Central Sooner Research, Norman, Oklahoma 73069",Central Sooner Research,Oklahoma,Norman,73069,,
NCT01113606,"Center for Plastic and Reconstructive Surgery, Ypsilanti, Michigan 48197",Center for Plastic and Reconstructive Surgery,Michigan,Ypsilanti,48197,,
NCT06157567,"Center for Morden Aesthetic Medicine, Jacksonville, Florida 32207","Center for Morden Aesthetic Medicine",Florida,Jacksonville,32207,,
NCT06202274,"Center for Morden Aesthetic Medicine, Jacksonville, Florida 32207",Center for Morden Aesthetic Medicine,Florida,Jacksonville,32207,,
NCT06064071,"Center for Excellence in Eye Care, Miami, Florida 33176",Center for Excellence in Eye Care,Florida,Miami,33176,,
NCT05372419,"Center For Dermatology Clinical Research, Inc., Fremont, California 94538","Center For Dermatology Clinical Research, Inc.",California,Fremont,94538,,
NCT05590585,"Center for Dermatology Clinical Research, inc., Fremont, California 94538","Center for Dermatology Clinical Research, inc.",California,Fremont,94538,,
NCT04695691,"Center for Dermatology Clinical Research, Inc, Fremont, California 94538","Center for Dermatology Clinical Research, Inc",California,Fremont,94538,,
NCT05097157,"Center for Dermatology and Laser Surgery, Sacramento, California 95819",Center for Dermatology and Laser Surgery,California,Sacramento,95819,,
NCT03424148,"Center for Dermatology and Laser Surgery, Sacramento, California 95819",Center for Dermatology and Laser Surgery,California,Sacramento,95819,,
NCT00891774,"Center for Dermatology and Dermatologic Surgery, Washington D.C., District of Columbia 20037",Center for Dermatology and Dermatologic Surgery,District of Columbia,Washington D.C.,20037,,
NCT02217228,"Center for Dermatology & Laser Surgery, Sacramento, California 95819","Center for Dermatology & Laser Surgery",California,Sacramento,95819,,
NCT05590585,"Center for Clinical Studies, LTD.LLP, Houston, Texas 77004","Center for Clinical Studies, LTD.LLP",Texas,Houston,77004,,
NCT05279495,"Center for Clinical and Cosmetic Research, Aventura, Florida 33180",Center for Clinical and Cosmetic Research,Florida,Aventura,33180,,
NCT07041489,"Center for Clinical and Cosmetic Research, Aventura, Florida 33180",Center for Clinical and Cosmetic Research,Florida,Aventura,33180,,
NCT01967277,"Center for Aesthetic Dermatology, Woodbury, New York 11797",Center for Aesthetic Dermatology,New York,Woodbury,11797,,
NCT03432195,"Celerion, Tempe, Arizona 85283","Celerion",Arizona,Tempe,85283,,
NCT02968719,"Celerion, Phoenix, Arizona 85283",Celerion,Arizona,Phoenix,85283,,
NCT03259958,"Celerion Inc., Phoenix, Arizona 85283",Celerion Inc.,Arizona,Phoenix,85283,,
NCT03397862,"Celerion Inc., Phoenix, Arizona 85283",Celerion Inc.,Arizona,Phoenix,85283,,
NCT03397862,"Celerion Inc., Lincoln, Nebraska 68502",Celerion Inc.,Nebraska,Lincoln,68502,,
NCT00103246,"Case Medical Center, University Hospitals Seidman Cancer Center, Case Comprehensive Cancer Center, Cleveland, Ohio 44106-5065","Case Medical Center, University Hospitals Seidman Cancer Center, Case Comprehensive Cancer Center",Ohio,Cleveland,44106-5065,,
NCT05487547,"Carolina Eye Doctors, Harrisburg, North Carolina 28075",Carolina Eye Doctors,North Carolina,Harrisburg,28075,,
NCT04245696,"Candela Institute of Excellence, Marlborough, Massachusetts 01752",Candela Institute of Excellence,Massachusetts,Marlborough,01752,,
NCT06064071,"Candela Institute of Excellence, Marlborough, Massachusetts 01752",Candela Institute of Excellence,Massachusetts,Marlborough,01752,,
NCT06640998,"Candela Institute for Excellence, Marlborough, Massachusetts 01752","Candela Institute for Excellence",Massachusetts,Marlborough,01752,,
NCT04203745,"Candela Institute for Excellence, Marlborough, Massachusetts 01752",Candela Institute for Excellence,Massachusetts,Marlborough,01752,,
NCT06157567,"Candela Institue for Excellence, Marlborough, Massachusetts 01752",Candela Institue for Excellence,Massachusetts,Marlborough,01752,,
NCT06202274,"Candela Institue for Excellence, Marlborough, Massachusetts 01752",Candela Institue for Excellence,Massachusetts,Marlborough,01752,,
NCT05590585,"Callender Dermatology and Cosmetic Center, Glenn Dale, Maryland 20769",Callender Dermatology and Cosmetic Center,Maryland,Glenn Dale,20769,,
NCT00891774,"Callender Center for Clinical Research, Mitchellville, Maryland 20721",Callender Center for Clinical Research,Maryland,Mitchellville,20721,,
NCT04029545,"California Dermatology & Clinical Research Institute, Encinitas, California 92024",California Dermatology & Clinical Research Institute,California,Encinitas,92024,,
NCT05590585,"C2 Research Center, LLC, Montgomery, Alabama 36117","C2 Research Center, LLC",Alabama,Montgomery,36117,,
NCT01438047,"BWH, Boston, Massachusetts 02115",BWH,Massachusetts,Boston,02115,,
NCT02067260,"Burke Pharmaceutical Research, Hot Springs, Arkansas 71913",Burke Pharmaceutical Research,Arkansas,Hot Springs,71913,,
NCT05423873,"Brian S. Biesman, M.D., Nashville, Tennessee 37203","Brian S. Biesman, M.D.",Tennessee,Nashville,37203,,
NCT01113606,"Brevard Plastic Surgery and Skin Institute, Melbourne, Florida 32901",Brevard Plastic Surgery and Skin Institute,Florida,Melbourne,32901,,
NCT05877833,"Brennal Pierre, Milford, Connecticut 06460",Brennal Pierre,Connecticut,Milford,06460,,
NCT03395678,"Boston Medical Center, Boston, Massachusetts 02118",Boston Medical Center,Massachusetts,Boston,02118,,
NCT01113606,"Body Aesthetic Plastic Surgery, St Louis, Missouri 63141",Body Aesthetic Plastic Surgery,Missouri,St Louis,63141,,
NCT01967277,"Bodian Dermatology, Great Neck, New York 11021",Bodian Dermatology,New York,Great Neck,11021,,
NCT04695691,"Blackhawk Plastic Surgery, Danville, California 94506",Blackhawk Plastic Surgery,California,Danville,94506,,
NCT04450589,"Biometrix, San Francisco, California 94127","Biometrix",California,San Francisco,94127,,
NCT04450602,"Biometrix, San Francisco, California 94127",Biometrix,California,San Francisco,94127,,
NCT03301870,"Bio-Kinetic Clinical Applications, LLC, Springfield, Missouri 65802","Bio-Kinetic Clinical Applications, LLC",Missouri,Springfield,65802,,
NCT03375957,"Bio-Kinetic Clinical Applications, LLC, Springfield, Missouri 65802","Bio-Kinetic Clinical Applications, LLC",Missouri,Springfield,65802,,
NCT01801826,"Beverly Hills International Center for Aesthetic Surgery, Beverly Hills, California 90211","Beverly Hills International Center for Aesthetic Surgery",California,Beverly Hills,90211,,
NCT04910945,"Berman Skin Institute, Los Altos, California 94022",Berman Skin Institute,California,Los Altos,94022,,
NCT02174393,"Bergen Dermatology, Englewood Cliffs, New Jersey 07632",Bergen Dermatology,New Jersey,Englewood Cliffs,07632,,
NCT06477172,"BelleSante, Scottsdale, Arizona 85260","BelleSante",Arizona,Scottsdale,85260,,
NCT06469398,"Bellaire Dermatology Associates, Bellaire, Texas 77401",Bellaire Dermatology Associates,Texas,Bellaire,77401,,
NCT06477172,"Behr Laser & Skin Care Center, Fresno, California 93720",Behr Laser & Skin Care Center,California,Fresno,93720,,
NCT00585715,"Beckman Laser Institute, Irvine, California 92697",Beckman Laser Institute,California,Irvine,92697,,
NCT00585247,"Beckman Laser Institute Medical and Surgical Cilnic, Irvine, California 92612",Beckman Laser Institute Medical and Surgical Cilnic,California,Irvine,92612,,
NCT01787461,"Baumann Cosmetic and Research Institute, Miami, Florida 33137",Baumann Cosmetic and Research Institute,Florida,Miami,33137,,
NCT02748928,"Baumann Cosmetic and Research Institute, Inc, Miami, Florida 33137","Baumann Cosmetic and Research Institute, Inc",Florida,Miami,33137,,
NCT06477172,"Bauman Medical, Boca Raton, Florida 33432","Bauman Medical",Florida,Boca Raton,33432,,
NCT05365360,"Banner University Dermatology, Tucson, Arizona 85719",Banner University Dermatology,Arizona,Tucson,85719,,
NCT06436261,"AYA Medical Spa, Atlanta, Georgia 30305","AYA Medical Spa",Georgia,Atlanta,30305,,
NCT05372419,"Axon Clinical Research, Inglewood, California 90301",Axon Clinical Research,California,Inglewood,90301,,
NCT02528552,"Axis Clinical Tirals, Los Angeles, California 90036",Axis Clinical Tirals,California,Los Angeles,90036,,
NCT05372419,"Avance Clinical Trials Inc, Laguna Niguel, California 92677",Avance Clinical Trials Inc,California,Laguna Niguel,92677,,
NCT06477172,"Austin Plastic Surgeon, Austin, Texas 78758",Austin Plastic Surgeon,Texas,Austin,78758,,
NCT02217228,"Austin Institute for Clinical Research, Pflugerville, Texas 78660","Austin Institute for Clinical Research",Texas,Pflugerville,78660,,
NCT06376110,"Austin Institute for Clinical Research, Inc., Pflugerville, Texas 78660","Austin Institute for Clinical Research, Inc.",Texas,Pflugerville,78660,,
NCT05932732,"Austin Institute for Clinical Research, Inc., Pflugerville, Texas 78660","Austin Institute for Clinical Research, Inc.",Texas,Pflugerville,78660,,
NCT05908825,"Austin Institute for Clinical Research, Inc., Pflugerville, Texas 78660","Austin Institute for Clinical Research, Inc.",Texas,Pflugerville,78660,,
NCT04738734,"Austin Institute for Clinical Research, Inc., Pflugerville, Texas 78550","Austin Institute for Clinical Research, Inc.",Texas,Pflugerville,78550,,
NCT05932732,"Austin Institute for Clinical Research, Inc., Houston, Texas 77056","Austin Institute for Clinical Research, Inc.",Texas,Houston,77056,,
NCT04738734,"Austin Institute for Clinical Research, Inc., Houston, Texas 77056","Austin Institute for Clinical Research, Inc.",Texas,Houston,77056,,
NCT03818555,"Austin Institute for Clinical Research - Pflugerville, Pflugerville, Texas 78660",Austin Institute for Clinical Research - Pflugerville,Texas,Pflugerville,78660,,
NCT03818555,"Austin Institute for Clinical Research - Central, Austin, Texas 78705",Austin Institute for Clinical Research - Central,Texas,Austin,78705,,
NCT06651476,"Atrium Health Wake Forest Baptist Medical Center, Winston-Salem, North Carolina 27157",Atrium Health Wake Forest Baptist Medical Center,North Carolina,Winston-Salem,27157,,
NCT03286283,"Atlanta Dermatology, Vein & Research Center, Alpharetta, Georgia 30022","Atlanta Dermatology, Vein & Research Center",Georgia,Alpharetta,30022,,
NCT00891774,"Atlanta Dermatology Vein & Research Center, Alpharetta, Georgia 30022",Atlanta Dermatology Vein & Research Center,Georgia,Alpharetta,30022,,
NCT05590585,"Atlanta Biomedical Clinical Research LLC, Atlanta, Georgia 30331",Atlanta Biomedical Clinical Research LLC,Georgia,Atlanta,30331,,
NCT04526275,"Artemis Clinical Research, San Diego, California 92109","Artemis Clinical Research",California,San Diego,92109,,
NCT01810484,"Art Plastic Surgery, Paramus, New Jersey 07652",Art Plastic Surgery,New Jersey,Paramus,07652,,
NCT05423873,"Art of Skin MD, Solana Beach, California 92075",Art of Skin MD,California,Solana Beach,92075,,
NCT05372419,"Arlington Research Center, Inc, Arlington, Texas 76011","Arlington Research Center, Inc",Texas,Arlington,76011,,
NCT02700204,"Arielle N. Kauvar,, New York, New York 10028","Arielle N. Kauvar,",New York,New York,10028,,
NCT02600104,"Arielle N. Kauvar, New York, New York 10028","Arielle N. Kauvar",New York,New York,10028,,
NCT05093569,"AMCR Institute, San Diego, California 92025",AMCR Institute,California,San Diego,92025,,
NCT06477172,"AM Facial Plastics, Beverly Hills, California 90211",AM Facial Plastics,California,Beverly Hills,90211,,
NCT01347879,"Altman Dermatology Associates, Arlington Heights, Illinois 60005",Altman Dermatology Associates,Illinois,Arlington Heights,60005,,
NCT06271993,"ALS Beauty and Personal Care, Torrance, California 90501",ALS Beauty and Personal Care,California,Torrance,90501,,
NCT06283173,"ALS Beauty and Personal Care, Torrance, California 90501","ALS Beauty and Personal Care",California,Torrance,90501,,
NCT05372419,"Allcutis Research, Inc., Beverly, Massachusetts 01915","Allcutis Research, Inc.",Massachusetts,Beverly,01915,,
NCT06477172,"AIEREM Aesthetics Spa & Plastic Surgery, Syosset, New York 11791",AIEREM Aesthetics Spa & Plastic Surgery,New York,Syosset,11791,,
NCT06477172,"AIEREM Aesthetics Spa & Plastic Surgery, Manhattan, New York 75231",AIEREM Aesthetics Spa & Plastic Surgery,New York,Manhattan,75231,,
NCT06477172,"AG Aesthetic Centre, Vancouver, Washington 98660",AG Aesthetic Centre,Washington,Vancouver,98660,,
NCT04540900,"Aesthetx, Campbell, California 95008",Aesthetx,California,Campbell,95008,,
NCT06477172,"Aesthetics By Dr. Lee, Granite Bay, California 95746","Aesthetics By Dr. Lee",California,Granite Bay,95746,,
NCT04185909,"Aesthetic Revolution Las Vegas, Las Vegas, Nevada 89148",Aesthetic Revolution Las Vegas,Nevada,Las Vegas,89148,,
NCT02098811,"Aesthetic Pavilion, Staten Island, New York 103206",Aesthetic Pavilion,New York,Staten Island,103206,,
NCT01842802,"Aesthetic Pavilion, Staten Island, New York 10306",Aesthetic Pavilion,New York,Staten Island,10306,,
NCT01113606,"Aesthetic and Plastic Surgery Institute, Greeley, Colorado 80634",Aesthetic and Plastic Surgery Institute,Colorado,Greeley,80634,,
NCT05372419,"Advanced Medical Research, Sandy Springs, Georgia 30328",Advanced Medical Research,Georgia,Sandy Springs,30328,,
NCT05590585,"Advanced Medical Research PC, Atlanta, Georgia 30328",Advanced Medical Research PC,Georgia,Atlanta,30328,,
NCT01292746,"Advanced Gynecology Specialists of Georgia, Evans, Georgia 30809",Advanced Gynecology Specialists of Georgia,Georgia,Evans,30809,,
NCT02765763,"Advanced Dermatology, LLC, Lincolnshire, Illinois 60069","Advanced Dermatology, LLC",Illinois,Lincolnshire,60069,,
NCT01113606,"Advanced Cosmetis Surgery, Greenville, South Carolina 29607",Advanced Cosmetis Surgery,South Carolina,Greenville,29607,,
NCT01437163,"Adolfo Fernandez-Obregon, MD, Hoboken, New Jersey 07030","Adolfo Fernandez-Obregon, MD",New Jersey,Hoboken,07030,,
NCT01347879,"ActivMed Practices & Research Inc, Haverhill, Massachusetts 10830",ActivMed Practices & Research Inc,Massachusetts,Haverhill,10830,,
NCT00594425,"Academic Dermatology Associates, Albuquerque, New Mexico 87106","Academic Dermatology Associates",New Mexico,Albuquerque,87106,,
NCT01147172,"Academic Dermatology Associates, Albuquerque, New Mexico 87106",Academic Dermatology Associates,New Mexico,Albuquerque,87106,,
NCT00673933,"Academic Dermatology Associates, Albuquerque, New Mexico 87106",Academic Dermatology Associates,New Mexico,Albuquerque,87106,,
NCT02898350,"AboutSkin, Dermatology and Derm Surgery PC, Englewood, Colorado 80113","AboutSkin, Dermatology and Derm Surgery PC",Colorado,Englewood,80113,,
NCT03793348,"AboutSkin Research, LLC, Greenwood Village, Colorado 80111","AboutSkin Research, LLC",Colorado,Greenwood Village,80111,,
NCT05123508,"AboutSkin Research, LLC, Greenwood Village, Colorado 80111","AboutSkin Research, LLC",Colorado,Greenwood Village,80111,,
NCT03115944,"AboutSkin Dermatology, Greenwood Village, Colorado 80111",AboutSkin Dermatology,Colorado,Greenwood Village,80111,,
NCT04738734,"AboutSkin Dermatology and DermSurgery, Greenwood Village, Colorado 80111",AboutSkin Dermatology and DermSurgery,Colorado,Greenwood Village,80111,,
NCT05423873,"About Skin, Greenwood Village, Colorado 80111",About Skin,Colorado,Greenwood Village,80111,,
NCT06032286,"Ablon Skin Institute, Manhattan Beach, California 90266","Ablon Skin Institute",California,Manhattan Beach,90266,,
NCT04545970,"Ablon Skin Institute Research Center, Manhattan Beach, California 90266",Ablon Skin Institute Research Center,California,Manhattan Beach,90266,,
NCT05332743,"Ablon Skin Institute and Research Center, Manhattan Beach, California 90266",Ablon Skin Institute and Research Center,California,Manhattan Beach,90266,,
NCT06936332,"Ablon Skin Institute and Research Center, Manhattan Beach, California 90266",Ablon Skin Institute and Research Center,California,Manhattan Beach,90266,,
NCT06920758,"Ablon Skin Institute and Research Center, Manhattan Beach, California 90266","Ablon Skin Institute and Research Center",California,Manhattan Beach,90266,,
NCT03206567,"Ablon Skin Institute & Research Center, Manhattan Beach, California 90266",Ablon Skin Institute & Research Center,California,Manhattan Beach,90266,,
NCT06043102,"Ablon Skin Institute & Research Center, Manhattan Beach, California 90266",Ablon Skin Institute & Research Center,California,Manhattan Beach,90266,,
NCT04048031,"Ablon Skin Institute & Research Center, Manhattan Beach, California 90266",Ablon Skin Institute & Research Center,California,Manhattan Beach,90266,,
NCT05879406,"Ablon Skin Institute & Research Center, Manhattan Beach, California 90266",Ablon Skin Institute & Research Center,California,Manhattan Beach,90266,,
NCT06571799,"Ablon Skin Institute & Research Center, Manhattan Beach, California 90266","Ablon Skin Institute & Research Center",California,Manhattan Beach,90266,,
NCT00981461,"Abe Marcadis, MD, Palm Beach, Florida","Abe Marcadis, MD",Florida,Palm Beach,nan,,
NCT00947219,"Abe Marcadis, M.D., West Palm Beach, Florida 33409","Abe Marcadis, M.D.",Florida,West Palm Beach,33409,,
NCT00947505,"Abe Marcadis, M.D., Palm Beach, Florida 33409","Abe Marcadis, M.D.",Florida,Palm Beach,33409,,
NCT02748928,"A Womans Touch Plastic Surgery, Louisville, Kentucky 40205",A Womans Touch Plastic Surgery,Kentucky,Louisville,40205,,
NCT02711618,"833 Northern Boulevard, Great Neck, New York 11021",833 Northern Boulevard,New York,Great Neck,11021,,
NCT01801826,"77 Plastic Surgery, San Francisco, California 943102",77 Plastic Surgery,California,San Francisco,943102,,
NCT01808742,"77 Plastic Surgery, San Francisco, California 94102",77 Plastic Surgery,California,San Francisco,94102,,
